WorkplaceName,AddressLine1,Address Line 2,Address Line 3,City,Region,Country,PostalCode,lat,lon
HMD3,13905 Crayton Blvd,,, HAGERSTOWN, MD,US, 21742-2386,39.6992807,-77.7262726
HMW3,6651 Chippewa St,,, SAINT LOUIS, MO,US, 63109-2538,38.5906936,-90.3061319
SUHB,4675 Appaloosa Dr,,, Irondale, AL,US,35210,33.5443075,-86.66911730000001
MOB9,6735 Trippel Rd.,,, Theodore, AL,US,36582,30.5554323,-88.21096589999999
SUHD,4675 Appaloosa Drive,,, Irondale, AL,US,35210,33.5443075,-86.66911730000001
BHM1,975 Powder Plant Rd,,, BESSEMER, AL,US, 35022-5497,33.3759011,-87.0097614
HSV1,7817 Greenbrier Road,,, MADISON, AL,US, 35756-4403,34.6662676,-86.84371050000001
LIT2,13001 HIGHWAY 70,,, NORTH LITTLE ROCK, AR,US, 72117-5026,34.7734429,-92.1201202
TEN3,800 N 75TH AVE ,,, PHOENIX , AZ,US, 85043-2101,33.4570924,-112.2253617
XUSH,7037 West Van Buren Street,,, Phoenix, AZ,US, 85043-3313,33.4492635,-112.2099697
SDL2,6395 N. Sarival Road,,, LITCHFIELD PARK, AZ,US,85340,33.5281144,-112.4091617
PHX3,6835 West Buckeye Road,,, Phoenix, AZ,US, 85043-4428,33.4331034,-112.20749
AZA4,3333 N 59TH AVE,,, PHOENIX, AZ,US,85043,33.4873732,-112.186051
GYR3,8181 W ROOSEVELT ST,,, PHOENIX, AZ,US, 85043-2356,33.4576191,-112.2330043
PHX7,800 N 75th Ave,,, Phoenix, AZ,US, 85043-2101,33.4570924,-112.2253617
PHX5,16920 W Commerce Drive,,, Goodyear, AZ,US, 85338-3620,33.411968,-112.4220684
UAZ1,500 S 48th St,,, Phoenix, AZ,US, 85034-3101,33.4430133,-111.978891
TUS2,6701 S KOLB RD,,, Tuscon, AZ,US,85756,32.1306151,-110.8392496
PHX9,777 S 79th Ave,,, Tolleson, AZ,US, 85353-3140,33.4414907,-112.228603
SUBW,1104 W Geneva Dr,,, Tempe, AZ,US,85281,33.3954357,-111.954578
SUBJ,1104 W Geneva Dr,,, Tempe, AZ,US,85281,33.3954357,-111.954578
PHX6,4750 West Mohave St,,, Phoenix, AZ,US, 85043-8305,33.4333831,-112.1647755
SUPR,9414 E San Salvador Dr,,, Scottsdale, AZ,US,85258,33.570853,-111.8784188
TAZ1,500 S 48th St,,, Phoenix, AZ,US,85034,33.4430133,-111.978891
TUS1,5333 W. Lower Buckeye Road,,, Phoenix, AZ,US,85043,33.4210449,-112.1761815
AZA6,2150 East Riverview Drive,,, Phoenix, AZ,US,85034,33.4198945,-112.0351548
SAZ1,3333 S 7TH ST,,, PHOENIX, AZ,US, 85040-1182,33.4150106,-112.063039
TFC1,5050 West Mohave St,,, Phoenix, AZ,US, 85043-8305,33.4328564,-112.1647919
KRB3,8181 W ROOSEVELT ST,,, PHOENIX, AZ,US, 85043-2356,33.4576191,-112.2330043
HPX9,3333 S 59TH AVE,,, PHOENIX, AZ,US, 85043-7904,33.4168446,-112.1843783
PCA1,7700 W Fillmore St,,, Phoenix, AZ,US, 85043-2101,33.4565355,-112.2253055
GYR1,605 S BULLARD AVE,,, GOODYEAR, AZ,US,85338,33.4404623,-112.374599
LIT1,7001 ZEUBER RD,,, LITTLE ROCK , AZ,US, 72206-5039,34.6975503,-92.20663189999999
GEU1,10205 W ROOSEVELT ST,,, AVONDALE, AZ,US, 85323-5009,33.4565854,-112.2784525
ISF1,300 California St.,,, San Francisco, CA,US,94104,37.7934926,-122.4004457
UCA5,3334 N. San Fernando Road,,, Los Angeles, CA,US,90065,34.117204,-118.2505609
ABE7,12510 Micro Dr,,, Mira Loma, CA,US,91752,34.0080614,-117.5558216
MAE6,15225 Whittier Blvd,,, Whittier, CA,US,90603,33.9477121,-118.002011
VUGE,3450 Dulles Dr,,, Mira Loma, CA,US, 91752-3242,34.0225356,-117.5180018
VUWE,736 Garner Rd,,, Modesto, CA,US,95357,37.6278924,-120.9213832
ONT6,24208 San Michele Rd,,, Moreno Valley, CA,US,92551,33.8723747,-117.2378488
ONT8,24300 Nandina Ave,,, Moreno Valley, CA,US,92551,33.8689119,-117.2374814
VUPG,16110 Cosmos Street,,, Moreno Valley, CA,US,92551,33.8862084,-117.2367492
OAK7,38811 Cherry St,,, Newark, CA,US,94560,37.5205843,-122.0144832
SUBV,810 E 8th St,,, Oakland, CA,US,94606,37.7908598,-122.2539228
SUAM,5400 Ontario Mills Parkway,,, Ontario, CA,US,91764,34.069113,-117.534429
XLAA,5691 E Philadelphia,,, Ontario, CA,US,91761,34.0348571,-117.5324199
SUAC,100 S Wineville Ave,,, Ontario, CA,US,91761,34.0622083,-117.5410543
VUVB,2053 East Jay St,,, Ontario, CA,US,91764,34.0764641,-117.6079106
SUJF,100 S Wineville Ave,,, Ontario, CA,US,91761,34.0622083,-117.5410543
VUWH,5725 Jurupa St,,, Ontario, CA,US,91761,34.0490778,-117.5272033
OAK3,255 Park Center Drive,,, Patterson, CA,US, 95363-8876,37.4689524,-121.1655176
VUGK,4120 Indian Ave,,, Perris, CA,US, 92571-7413,33.8479704,-117.2326724
VUTD,8291 Milliken Avenue,,, Rancho Cucamonga, CA,US,91730,34.1028788,-117.5543356
LAX8,30142 Avenida De Las Banderas,,, Rancho Santa Margarita, CA,US, 92688-2116,33.6324047,-117.6040595
ONT9,2125 West San Bernardino Ave,,, Redlands, CA,US,92374,34.0758431,-117.2282944
LGB4,27517 Pioneer Avenue,,, Redlands, CA,US,92374,34.0810959,-117.2028217
VUPX,2300 W San Bernardino Ave,,, Redlands, CA,US,92374,34.0794164,-117.2349091
XUSV,2255 W. Lugonia Avenue,,, Redlands, CA,US, 92374-5049,34.0689335,-117.2316018
TCA2,2400 Marine Avenue,,, Redondo Beach, CA,US,90278,33.8940352,-118.3696612
SNA4,2496 W Walnut Ave,,, Rialto, CA,US, 92376-3009,34.1288932,-117.4218278
XUSJ,1590 Tamarind Ave,,, Rialto, CA,US,92376,34.1270883,-117.42517
LGB8,1568 N Linden Ave,,, Rialto, CA,US,92376,34.1290324,-117.4037087
VUMD,548 W Merrill Ave,,, Rialto, CA,US, 92376-9101,34.0934559,-117.3798252
LGB6,20901 Krameria Ave,,, Riverside, CA,US,92518,33.8798077,-117.2994499
SMF1,4900 W Elkhorn Blvd,,, Sacramento, CA,US,95837,38.68247900000001,-121.5744603
TCA9,2934 Ramona Ave,,, Sacramento, CA,US,95826,38.5466863,-121.4176797
SNA7,555 East Orange Show Rd,,, San Bernadino, CA,US,92408,34.0775185,-117.272566
SNA8,555 East Orange Show Rd,,, San Bernadino, CA,US,92408,34.0775185,-117.272566
XIX2,2020 E Central Ave,,, San Bernardino, CA,US, 92408-0123,34.0900734,-117.2415235
ONT2,1910 E Central Ave,,, San Bernardino, CA,US, 92408-0123,34.0883441,-117.2460331
ONT4,1910 E Central Ave,,, San Bernardino, CA,US, 92408-0123,34.0883441,-117.2460331
ONT7,2020 E Central Ave,,, San Bernardino, CA,US, 92408-2606,34.0900734,-117.2415235
PCA2,4501 PATTERSON AVE,,, PERRIS, CA,US, 92571-9722,33.8511695,-117.2504909
VUBJ,1456 Harry Shepard Blvd,,, San Bernardino, CA,US,92408,34.101019,-117.2576912
SUBA,2215 Paseo De Las Americas,,, San Diego, CA,US,92154,32.5585373,-116.9352914
TCA6,2727 Kurtz St,,, San Diego, CA,US,92110,32.7498677,-117.2011905
ILS3,22135 Hawthorne Blvd,,, Torrance , CA,US,90503,33.8260676,-118.3523128
RELO,201 Spear St,,, San Francisco, CA,US, 94105-1630,37.7912629,-122.3920152
TCA1,888 Tennessee St,,, San Francisco, CA,US,94107,37.7606028,-122.3897609
XUSD,1909 Zephyr St,,, Stockton, CA,US,95206,37.91783,-121.2508331
XLAG,2115 S Sinclair Ave,,, Stockton, CA,US,95215,37.9399626,-121.2265069
TCA7,222 Commercial St,,, Sunnyvale, CA,US,94085,37.3784992,-122.0069328
VUKJ,19270 S. Western Avenue,,, Torrance, CA,US,90501,33.8539803,-118.3063806
OAK6,1350 N. MacArthur Drive,,, Tracy, CA,US, 95304-9370,37.7425123,-121.4068819
SJC7,188 Mountain House Parkway,,, Tracy, CA,US,95391,37.7251196,-121.5294417
VUBD,17182 Nevada Avenue,,, Victorville, CA,US,92345,34.5752078,-117.3657013
VUWA,13243 Nutro Way,,, Victorville, CA,US,92395,34.4915565,-117.2848793
SUFA,8246 W. Mineral King Ave. ,,, Visalia , CA,US,93291,36.3280948,-119.3835555
SUAK,1170 Centre Drive,,, Walnut, CA,US,91789,33.9940631,-117.8714809
SMF2,2935 Ramco St.,,, West Sacramento, CA,US,95691,38.556417,-121.563204
HCA7,5119 District Blvd,,, Vernon, CA,US, 90058-5512,33.9933215,-118.1828864
FAT1,3575 S. Orange Ave.,,, Fresno, CA,US,93725,36.68337229999999,-119.7654044
PCA3,10681 Production Ave ,,, Fontana, CA,US, 92337-8006,34.058834,-117.428107
SMF3,3923 B St.,,, Stockton, CA,US,95206,37.9146005,-121.2523216
IST1,455 Valley Drive ,,, BRISBANE , CA,US,94005,37.69084489999999,-122.4173046
SMF9,300 Crocker Dr,,, Vacaville, CA,US,95688,38.3994415,-121.9508111
HCA8,1350 N. MacArthur Drive,,, Tracy, CA,US,95304,37.7425123,-121.4068819
LGB7,1660 N. Linden Avenue,,, Rialto, CA,US,92376,34.1314384,-117.4033855
VUH9,2325 Cottonwood Ave,,, RIVERSIDE, CA,US,92508,33.9224982,-117.2935269
VUH4,2830 E Philadelphia Street,,, ONTARIO, CA,US,91761,34.0317635,-117.5881038
SBD3,5990 N Cajon Blvd ,,, SAN BERNARDINO , CA,US,92407,34.3133957,-117.4790696
VUH1,0200 AMARGOSA RD,,, HESPERIA, CA,US, 92345-0200,34.448753,-117.3635976
TEN2,1590 TAMARIND AVE,,, RIALTO, CA,US, 92376-3008,34.1270883,-117.42517
XLX3,4375 N Perris Blvd ,,, PERRISA , CA,US,92571,33.8498922,-117.2229588
XLX2,3565 N AIRPORT WAY ,,, MANTECAA , CA,US, 95336-8696,37.8325924,-121.2548156
SMF6,6900 AIRPORT BLVD ,,, SACRAMENTO , CA,US, 95837-1109,38.6956674,-121.5927013
SCK4,6001 S Austin Rd ,,, STOCKTON , CA,US, 95215-8354,37.9089837,-121.1843261
SBD1,3388 S Cactus Ave ,,, BLOOMINGTON , CA,US,92316,34.0389747,-117.3846677
SAN3,6971 OTAY MESA RD ,,, SAN DIEGO , CA,US, 92154-5722,32.566476,-116.9322736
SUOQ,3700 Cover St,,, Long Beach, CA,US,90808,33.8274466,-118.1484557
OAK9,6250 PROMONTORY PKWY ,,, TRACY , CA,US, 95377-8457,37.733037,-121.5180845
KRB4,4501 PATTERSON AVE ,,, PERRIS , CA,US, 92571-9722,33.8511695,-117.2504909
BUR2,925 Westwood Boulevard,,, Los Angeles, CA,US,90024,34.0631874,-118.4456533
HCA3,3334 N San Fernando Rd Bldg E,,, Los Angeles, CA,US, 90065-1417,34.117204,-118.2505609
XSF1,2250 Promontory Pkwy ,,, TRACY , CA,US,95377,37.7332222,-121.5234126
LAX6,5119 District Blvd,,, Los Angeles, CA,US,90058,33.9933215,-118.1828864
XLA2,6725 Kimball Ave,,, Chino, CA,US,91708,33.9679783,-117.6580928
VUWR,2301 W. Bernardino Ave.,,, REDLANDS, CA,US,92374,34.0754875,-117.2356802
BUR7,11200 Iberia St.,,, MIRA LOMA, CA,US, 91752-3265,34.0213706,-117.5276535
BFL2,4500 Express Ave,,, SHAFTER, CA,US,93263,35.4565866,-119.1989709
MAC2,1100 S Harbor Blvd,,, Fullerton, CA,US,92832,33.8614441,-117.9224287
TCA5,3334 N San Fernando Rd Bldg E,,, Los Angeles, CA,US,90065,34.117204,-118.2505609
RSC1,1651 California St,,, Redlands, CA,US,92374,34.0812589,-117.2279976
HLA9,4375 N Perris Blvd. ,,, PERRIS , CA,US,92571,33.8498922,-117.2229588
HSF9,44051 OSGOOD RD,,, FREEMONT, CA,US,94539,37.5096359,-121.9406618
VUGT,17789 Harvill Avenue,,, PERRIS, CA,US,92570,33.8607304,-117.2650397
VHNA,1160 N. Linden Ave,,, RIALTO, CA,US,92376,34.1197108,-117.4013396
ISF3,845 Market St,,, San Francisco, CA,US,94103,37.7839767,-122.4054904
ISF4,3 Embarcadero Center,,, San Francisco, CA,US,94111,37.7948167,-122.397348
ISF5,575 Market St,,, San Francisco, CA,US,94105,37.7895508,-122.4003129
ISF2,98 Post St.,,, San Francisco, CA,US,94104,37.78914779999999,-122.4034933
ILS2,22001 Ventura Blvd,,, Woodland Hills Woodland Hills, CA,US,91364,34.1688244,-118.606089
ILS1,14249 Whittier Blvd,,, Whittier , CA,US,90607,33.956189,-118.0196609
SFO3,5250 NEWCASTLE RD,,, STOCKTON, CA,US, 95215-8345,37.90616929999999,-121.2020417
SCK1,4532 NEWCASTLE RD,,, STOCKTON, CA,US, 95215-9465,37.9135123,-121.2019003
DCA2,5250 Goodman Way,,, Eastvale, CA,US, 91752-5088,33.9937454,-117.5529026
XUSO,657 Nance Street,,, Perris, CA,US,92571,33.8543137,-117.2392917
OAK8,1 Middleton Way,,, American Canyon, CA,US,94503,38.204674,-122.2644137
BEK1,2495 Bancroft Way Room 235,,, Berkeley, CA,US,94720,37.8693421,-122.2594525
SUPL,587 Apollo St,,, Brea, CA,US,92821,33.9283465,-117.9043491
SUFD,587 Apollo St,,, Brea, CA,US,92821,33.9283465,-117.9043491
SUFC,587 Apollo St,,, Brea, CA,US,92821,33.9283465,-117.9043491
SJC9,1455 valley drive,,, Brisbane, CA,US,94005,37.6882398,-122.4102188
TCA0,455 Valley Drive,,, Brisbane, CA,US,94005,37.69084489999999,-122.4173046
SUPE,7886 Deering Ave.,,, Canoga Park, CA,US,91304,34.213571,-118.5946656
VUKF,18120 Bishop Ave,,, Carson, CA,US, 90746-4032,33.8656799,-118.2418808
SUNC,1113 E 230th Street,,, Carson, CA,US,90745,33.8180756,-118.2539499
SUAR,9207 Eton Avenue Unit B,,, Chatsworth, CA,US,91311,34.2379778,-118.5946861
SUPK,9851 Owensmouth Ave,,, Chatsworth, CA,US,91311,34.2494371,-118.6022971
XBC1,15750 Mountain Avenue,,, Chino, CA,US,91708,33.96406899999999,-117.667811
SUOK,437 Baldwin Park Blvd,,, City of Industry, CA,US,91746,34.0564904,-117.9936307
DAV1,1 Shields Ave,,, Davis, CA,US, 95616-8662,38.5387283,-121.753082
VUTH,25451 Mountain House Pkwy,,, TRACY, CA,US,95377,37.7267123,-121.5328968
XBSP,15750 Mountain Ave,,, CHINO, CA,US,91708,33.96406899999999,-117.667811
VUGR,1565 N Mac Arthur Dr.,,, TRACY, CA,US,95376,37.7464907,-121.4109736
IUSA,1041 E 230th St,,, Carson, CA,US, 90745-5007,33.8178529,-118.256168
UCA6,2727 Kurtz St,,, San Diego, CA,US, 92110-3109,32.7498677,-117.2011905
HCA9,455 VALLEY DR,,, BRISBANE, CA,US, 94005-1209,37.69084489999999,-122.4173046
UCA4,2006 McGaw Avenue,,, Irvine, CA,US,92614,33.6898396,-117.845704
UCA1,888 Tennessee St ,,, San Francisco, CA,US,94107,37.7606028,-122.3897609
FDL3,24208 SAN MICHELE RD,,, MORENO VALLEY, CA,US, 92551-9561,33.8723747,-117.2378488
ULA1,635 8th St,,, SAN FERNANDO, CA,US,91340,34.2923959,-118.418958
ULA2,4278 N. Harbor Blvd.,,, FULLERTON, CA,US,92835,33.9222453,-117.9301003
USC2,2400 McClellan Park Dr,,, SACRAMENTO, CA,US,95838,38.6420473,-121.408057
USF3,1911 Lundy Ave,,, SAN JOSE, CA,US,95131,37.3940027,-121.8914169
USC1,3640 Ramos Dr,,, WEST SACRAMENTO, CA,US, 95691-6401,38.5439014,-121.5771356
USF1,750 Laurelwood Road,,, SANTA CLARA, CA,US,95054,37.3796167,-121.9471907
USF2,1788 Fairway Dr,,, SAN LEANDRO, CA,US,94577,37.7049054,-122.1631346
XIX6,10681 Production Ave,,, San Bernardino, CA,US, 92337-8006,34.058834,-117.428107
BFL1,1601 Petrol Road,,, BAKERSFIELD, CA,US,93308,35.4447703,-119.0539563
KRB1,555 E ORANGE SHOW RD,,, SAN BERNARDINO, CA,US,92408,34.0775185,-117.272566
PSP1,1010 W Fourth St. ,,, BEAUMONT, CA,US, 92223-2684,33.9285142,-117.0024016
SAX1,4041 PECK RD ,,, EL MONTE , CA,US, 91732-2246,34.0785576,-118.021056
SAX2,150 RADIO RD,,, CORONA , CA,US, 92879-1718,33.877078,-117.5431238
SCA2,12453 SAN PABLO AVE ,,, RICHMOND, CA,US, 94805-1954,37.9390624,-122.3272596
SCA3,10 N MAIN ST ,,, MILPITAS, CA,US, 95035-4342,37.4307943,-121.9067079
SCA4,16915 VIA DEL CAMPO ,,, SAN DIEGO , CA,US, 92127-1717,33.0205034,-117.0894119
SCA5,1120 EXPOSITION BLVD ,,, SACRAMENTO , CA,US, 95815-4328,38.59895909999999,-121.4512868
XIX7,555 E ORANGE SHOW RD,,, SAN BERNARDINO, CA,US, 92408-2453,34.0775185,-117.272566
SLA5,5250 Goodman Way,,, Eastvale, CA,US, 91752-5088,33.9937454,-117.5529026
SLA6,5250 GOODMAN WAY,,, EASTVALE, CA,US, 91752-5088,33.9937454,-117.5529026
ULA6,5119 District Blvd,,, LOS ANGELES, CA,US, 90058-5512,33.9933215,-118.1828864
USF4,455 Valley Drive,,, BRISBANE, CA,US,94005,37.69084489999999,-122.4173046
UCA9,2934 Ramona Ave,,, Sacramento , CA,US, 95826-3848,38.5466863,-121.4176797
UCA2,2400 Marine Avenue,,, Redondo Beach, CA,US, 90278-1103,33.8940352,-118.3696612
UCA3,11800 West Olympic Blvd,,, Los Angeles, CA,US, 90064-1100,34.0327588,-118.4498061
MAB1,6245 Topanga Canyon Blvd,,, Woodland Hills, CA,US,91367,34.1841885,-118.6067827
MAB9,13752 Jamboree Rd,,, Irvine, CA,US,92602,33.7238083,-117.7889179
UCA7,222 Commercial St,,, Sunnyvale, CA,US,94085,37.3784992,-122.0069328
UCA8,1000 Folger Ave,,, Berkeley, CA,US,94710,37.8510741,-122.2883453
LAX9,11263 Oleander Ave,,, FONTANA, CA,US,92337,34.0515216,-117.44633
XUSX,19949 Kendall Dr.,,, SAN BERNARDINO, CA,US,92407,34.1955329,-117.3698892
PMD1,COLUMBIA AVE,,, PALMDALE, CA,US,98550,34.566781,-118.064925
MCE1,FULKERTH RD,,, TURLOCK, CA,US,95380,37.507288,-120.8824915
SUJB,706 North Diamond Bar Blvd,,, Diamond Bar, CA,US,91765,34.0320838,-117.8078336
LGB3,4950 Goodman way,,, Eastvale, CA,US,92880,33.9984767,-117.5528866
VUBR,1405 N LOCUST AVE,,, RIALTO, CA,US, 92376-3020,34.1256001,-117.4057345
VUBP,6500 POWERLINE RD,,, SACRAMENTO, CA,US,95835,38.6876549,-121.5747436
SNA6,5250 Goodman Road,,, Eastvale, CA,US,92880,33.9937454,-117.5529026
SNA9,5250 Goodman Road,,, Eastvale, CA,US,92880,33.9937454,-117.5529026
MAM7,742 Los Angeles Ave,,, MOORPARK, CA,US, 93021-1756,34.2778069,-118.8694886
VUWC,4700 E Nestle Purina Ave,,, Flagstaff, CA,US,86004,35.2199494,-111.5747775
VUBG,8365 Sultana Ave,,, Fontana, CA,US,92335,34.1021265,-117.4689981
SCK6,Grant Line Road ,,, N Chrisman Road, TRACY,US, CA,95304,
SBD6,EUCALYPTUS AVE,,, CHINO, CA,US,91708,33.9900391,-117.6683531
VUPQ,9211 Kaiser Way,,, Fontana, CA,US,92335,34.0867002,-117.516562
VUAI,3700 INDIAN AVE,,, PERRIS, CA,US, 92571-3172,33.8388869,-117.2294
VUAK,740 VINTAGE AVE,,, ONTARIO, CA,US, 91764-5365,34.0712487,-117.5332575
MAC4,1610 W Imperial Hwy,,, La Habra, CA,US,90631,33.9155946,-117.9646225
VUBH,9950 Calabash Ave,,, Fontana, CA,US, 92335-5210,34.0727631,-117.5037184
VUAG,4580 LOGISTICS DR,,, STOCKTON, CA,US, 95215-8353,37.9131404,-121.1930092
IUSK,4501 Patterson Ave,,, PERRIS , CA,US,92571,33.8511695,-117.2504909
SUPI,2325 Raymer Avenue,,, Fullerton, CA,US,92833,33.8743488,-117.9700219
SUHW,2325 Raymer Ave,,, Fullerton, CA,US,92833,33.8743488,-117.9700219
VUJK,15710 SAN ANTONIO AVE,,, CHINO, CA,US, 91708-7655,33.965634,-117.6592711
VUCH,17486 NISQUALLI RD,,, VICTORVILLE, CA,US, 92395-7740,34.4868902,-117.2856143
XFI1,6351 Cameron Boulevard ,,, Gilroy, CA,US,95020,36.9959845,-121.5448501
BAY1,555 Maritime Street,,, Bldg. D512, OAKLAND,US, CA,94607,
VULL,1350 S WATERMAN AVE,,, SAN BERNARDINO, CA,US, 92408-2804,34.0773835,-117.2790616
VUJU,305 Resource Drive,,, BLOOMINGTON, CA,US,92316,34.0402431,-117.374831
SUOO,16792 Burke Lane,,, Huntington Beach, CA,US,92647,33.7184993,-117.9984035
MAF9,11340 South Street,,, CERRITOS, CA,US,90701,33.8573862,-118.0916927
VUJH,11940 S HARLAN RD,,, LATHROP , CA,US,95330,37.8484792,-121.2787304
HSF6,1401 GRIFFITH ST,,, SAN FRANCISCO, CA,US, 94124-3400,37.7261733,-122.3795564
SUSH,16792 Burke Lane,,, Huntington Beach, CA,US,92647,33.7184993,-117.9984035
LGB9,4375 N Perris Blvd,,, PERRIS, CA,US,92571,33.8498922,-117.2229588
SBD2,1494 S WATERMAN AVE,,, SAN BERNARDINO, CA,US, 92408-2805,34.0737334,-117.2810563
SMF7,4800 Midway Road,,, VACAVILLE, CA,US, 95688-9626,38.4138106,-121.9472525
SAX5,725 CROCKER ST,,, LOS ANGELES, CA,US, 90021-1411,34.0396381,-118.2467006
SAX4,5239 N FIGUEROA ST,,, LOS ANGELES, CA,US, 90042-4018,34.1070359,-118.1984969
SAX3,1245 N SPRING ST,,, LOS ANGELES, CA,US, 90012-1838,34.06608870000001,-118.2345424
OXR1,3100 Sakioka Dr,,, OXNARD, CA,US, 93030-8966,34.2152523,-119.1296273
VUAC,1670 Champagne Ave,,, ONTARIO, CA,US, 91761-3612,34.0438932,-117.5306891
IRV1,4139 Campus Drive,,, Irvine, CA,US,92612,33.6500281,-117.8392249
XUST,3251 De Forest Circle,,, MIRA LOMA, CA,US,91752,34.0272215,-117.5211488
TCA4,2006 McGaw Avenue,,, Irvine, CA,US,92614,33.6898396,-117.845704
CSD1,9500 Gilman Drive #0102,,, La Jolla, CA,US,92093,32.8795783,-117.2368465
MAB4,5101 Lankershim Blvd.,,, Los Angeles, CA,US,91601,34.1632212,-118.3740546
MAF4,140 Promenade Way CA ,,, Westlake Village , CA,US,91362,34.1587747,-118.8208989
MAC9,6235 E Spring St ,,, Long Beach , CA,US,90808,33.8113746,-118.1098904
MAG1,6855 S La Cienega Blvd ,,, Los Angeles , CA,US,90045,33.9756185,-118.3705204
VUTF,16047 Mountain Ave ,,, CHINO , CA,US,91708,33.9613136,-117.6650117
USD1,9269 Lightwave Ave ,,, SAN DIEGO , CA,US,92123,32.8284933,-117.1318064
VUI6,15835 San Antonio Ave.,,, CHINO, CA,US,91708,33.9658264,-117.6577438
VUI5,13133 Innovation Way,,, VICTORVILLE, CA,US,92395,34.5753606,-117.3823034
MAB5,19340 Rinaldi St.,,, Northridge, CA,US,91326,34.273468,-118.554946
LGB1,2417 E. Carson,,, St., Long Beach,US, CA,90810,
VUI1,909 E 236th St,,, CARSON, CA,US,90745,33.8120401,-118.2586388
VUH7,3355 E Cedar St,,, ONTARIO, CA,US,91761,34.0383858,-117.5796105
KCA6,1553 N Alder Ave,,, RIALTO, CA ,US, 92376-3024,34.1288334,-117.4185971
KCA8,1553 N Alder Ave,,, RIALTO, CA ,US, 92376-3024,34.1288334,-117.4185971
VUJ2,13052 Jurupa Ave,,, FONTANA, CA ,US,92337,34.0477659,-117.5216433
ULA6,5119 District Blvd ,,, Los Angeles , CA ,US, 90058-5512,33.9933215,-118.1828864
DEN6,480 E 55th Ave,,, Denver, CO,US,80216,39.7940631,-104.9810792
DEN3,14601 Grant St.,,, Thornton, CO,US,80023,39.9604919,-104.9848926
SUEA,1821 Lefthand Circle,,, Unit D, Longmont,US, CO,80501,
TCO1,480 E 55th Avenue,,, Denver, CO,US,80216,39.7940631,-104.9810792
XLAK,18875 E BROMLEY LN,,, BRIGHTON, CO,US,80601,39.9767611,-104.7644912
SUHQ,4635 NAUTILUS CT S,,, Boulder, CO,US,80301,40.05908489999999,-105.2040319
SCO1,6050 Washington Street ,,, Denver, CO,US, 80216-1285,39.8079028,-104.9751571
POD4,14601 Grant Street,,, THORNTON, CO,US,80023,39.9604919,-104.9848926
BDU2,8350 Quintero St,,, COMMERCE CITY, CO,US,80022,39.8485165,-104.7856973
UCO2,3434 47th Street,,, Boulder, CO,US,80301,40.0380637,-105.2437428
DEN8,21000 E 13TH AVE,,, AURORA, CO,US,80018,39.7366483,-104.7369005
DEN2,22205 East 19th Ave,,, Aurora, CO,US,80019,39.7457922,-104.7291708
UCO1,480 E. 55th Avenue,,, Denver, CO,US,80216,39.7940631,-104.9810792
DEN4,4222 Integration Loop,,, COLORADO SPRINGS, CO,US, 80916-5766,38.772103,-104.7160454
DEN7,22300 E 26th Avenue,,, AURORA, CO,US,80019,39.75457249999999,-104.7269485
BDL4,1215 KENNEDY RD,,, WINDSOR, CT,US, 06095-1345,41.9012831,-72.6526962
BDL6,120 County Line Drive,,, CROMWELL, CT,US,6416,41.6321444,-72.6820328
BDL3,409 Washington Avenue,,, North Haven, CT,US,6473,41.41441760000001,-72.84676240000002
SUJD,47 Industrial Park Rd,,, Centerbrook, CT,US,6409,41.347261,-72.41037229999999
CON1,40 Wilbur Cross Way,,, Mansfield, CT,US,6268,41.8040499,-72.2412611
BDL2,200 Old Iron Ore Rd,,, Windsor, CT,US,6095,41.8754164,-72.70689899999999
BDL1,200 Old Iron Ore Rd,,, Windsor, CT,US,6095,41.8754164,-72.70689899999999
KDC1,1350 Connecticut Ave NW,,, Washington, DC,US,20036,38.9083958,-77.0431394
IDC1,1100 15th St NW,,, Washington, DC,US,20005,38.904028,-77.0348573
IDC4,1733 14th St NW,,, WASHINGTON, DC,US,20009,38.9131877,-77.0317346
IDC9,750 9th St. NW,,, Washington, DC,US,20001,38.9595315,-77.0259137
SUPP,230 Centerpoint BLVD,,, New Castle, DE,US,19720,39.663432,-75.5879846
PHL3,1600 Johnson W ay,,, New Castle, DE,US, 19720-8111,39.65937530000001,-75.58970839999999
POD1,560 Merrimac Avenue,,, MIDDLETOWN, DE,US,19709,39.4390554,-75.7333756
PHL7,560 Merrimac Ave,,, Middletown, DE,US, 19709-4652,39.4390554,-75.7333756
PHL1,1 Centerpoint Blvd.,,, New Castle, DE,US, 19720-4172,39.6638447,-75.5900722
MTN1,1025 BOXWOOD RD ,,, WILMINGTON , DE,US,19804,39.7273802,-75.6124971
ILG1,780 S. DuPont Highway,,, NEW CASTLE, DE,US,19720,39.6260067,-75.635916
SUHS,18 Dixon St,,, Selbyville, DE,US,19975,38.4533961,-75.2291205
SUHC,18 Dixon St,,, Selbyville, DE,US,19975,38.4533961,-75.2291205
SUPQ,230 Centerpoint BLVD,,, New Castle, DE,US,19720,39.663432,-75.5879846
TFL3,4430 E ADAMO DR ,,, Tampa, FL,US,33605,27.9539814,-82.4097546
PBI2,14490 Corporate Road N,,, JUPITER , FL,US, 33478-6456,26.9081884,-80.26467799999999
MCO2,2600 N Normandy Blvd,,, Deltona, FL,US, 32725-2610,28.9388892,-81.2588545
PFL2,8060 State Rd 33 North,,, Lakeland, FL,US, 33809-1704,28.1516823,-81.8908099
SFL4,6337 Country Road 579,,, Seffner, FL,US,33584,28.015168,-82.3021674
SCA6,6317 COUNTY ROAD 579,,, SEFFNER, FL,US,33584,28.0149901,-82.30207879999999
SFL2,1125 SE 8th Street,,, Hialeah, FL,US,33010,25.816205,-80.2590498
SFL3,10681 W MCNAB RD,,, Tamarac, FL,US, 33321-6437,26.2081045,-80.29271709999999
PFL3,8054 STATE ROAD 33 N,,, LAKELAND, FL,US,33809,28.1526267,-81.8944884
LAL4,5380 ALLEN K BREED HWY,,, LAKELAND, FL,US, 33811-1130,28.0242074,-82.0511267
TMB8,13720 SW 272ND ST ,,, HOMESTEAD , FL,US, 33032-7847,25.5132407,-80.4138236
PFL1,1001 13th Avenue East,,, Bradenton, FL,US, 34208-2656,27.4838688,-82.5523992
JAX2,12900 Pecan Park Road,,, Jacksonville, FL,US,32218,30.4634755,-81.6800342
JAX3,13333 103rd Street,,, Jacksonville, FL,US,32221,30.2487102,-81.8656321
SUPD,8320 Baycenter Rd,,, Jacksonville, FL,US,32256,30.2273773,-81.58646069999999
TPA2,1760 County Line Rd.,,, Lakeland, FL,US,33811,28.0202461,-82.05399369999999
MIA6,3200 NW 67th Avenue,,, Miami, FL,US,33122,25.8028667,-80.3069524
TFL2,101 NE 23rd Street,,, Miami, FL,US,33137,25.7990828,-80.19313939999999
UFL2,101 NE 23rd Street,,, Miami, FL,US,33137,25.7990828,-80.19313939999999
MIA7,1900 NW 132nd Place,,, Miami, FL,US,33182,25.7941531,-80.4109174
SUJC,325 NW 28TH ST,,, Miami, FL,US,33127,25.803147,-80.2017812
SUJA,325 NW 28TH ST,,, Miami, FL,US,33127,25.803147,-80.2017812
MIA1,14000 NW 37th Avenue,,, Opa-Locka, FL,US,33054,25.9086457,-80.25650159999999
CFL1,4225 East Plaza Drive,,, Orlando, FL,US,32816,28.6069301,-81.19664879999999
XUSF,901 West Landstreet Road,,, Orlando, FL,US,32824,28.438171,-81.3909757
TFL4,7469 Kingspointe Parkway,,, ORLANDO, FL,US,32819,28.4597057,-81.4394008
SUAV,8870 Boggy Creek Rd,,, Orlando, FL,US,32824,28.4377017,-81.3493948
SUAW,8870 Boggy Creek Rd,,, Orlando, FL,US,32824,28.4377017,-81.3493948
SUAQ,8870 Boggy Creek Rd,,, Orlando, FL,US,32824,28.4377017,-81.3493948
SUBT,7070 NW 75th St,,, Parkland, FL,US,33067,26.3237951,-80.2209991
TPA1,3350 Laurel Ridge Ave,,, Ruskin, FL,US,33570,27.7275372,-82.3868839
SUOD,121 Kelsey Ln,,, Tampa, FL,US, 33619-4348,27.9472966,-82.36129369999999
UFL3,4430 East Adamo,,, Tampa, FL,US,33605,27.9539814,-82.4097546
SUBI,2213 VISTA PKWY,,, West Palm Beach, FL,US,33411,26.7173061,-80.1498287
SUBU,2213 VISTA PKWY,,, West Palm Beach, FL,US,33411,26.7173061,-80.1498287
TPA4,8727 HARNEY RD,,, TEMPLE TERRACE, FL,US,33637,28.0296325,-82.35272259999999
MCO1,12340 Boggy Creek Rd,,, Orlando, FL,US,32824,28.3839662,-81.316217
TFL5,8792 Ely Rd,,, PENSACOLA, FL,US,32514,30.52333569999999,-87.2006981
SFL1,7469 KINGSPOINTE PKWY,,, ORLANDO, FL,US, 32819-8587,28.4597057,-81.4394008
TPA6,3400 NW 35th Avenue Road,,, OCALA, FL,US,34475,29.2272387,-82.1820262
HJX9,2780 LLOYD RD ,,, JACKSONVILLE , FL,US,32254,30.3569399,-81.7599449
HTP9,3400 NW 35th Ave. Rd. ,,, OCALA , FL,US,34475,29.2227044,-82.1776403
TPA3,676 C Fred Jones Blvd,,, Auburndale, FL,US,33823,28.151926,-81.81223109999999
UFL4,7469 Kingspointe Parkway,,, Orlando, FL,US,32819,28.4597057,-81.4394008
UFL6,3200 NW 67th Avenue,,, MIAMI, FL,US,33122,25.8028667,-80.3069524
UFL5,4769 Oak Fair Blvd,,, TAMPA, FL,US,33610,27.9922619,-82.3532661
UFL7,6843 S Conway Rd,,, ORLANDO, FL,US,32812,28.463388,-81.33052239999999
KGA8,3201 Centre Parkway,,, ATLANTA, GA,US,30344,33.650701,-84.5087824
VUAW,4009 Montgomery St,,, SAVANNAH, GA,US,31405,32.0431221,-81.1109018
SAV3,7001 Skipper Rd,,, Macon, GA,US,31216,32.7189188,-83.72341879999999
ATL2,2255 W PARK PLACE BLVD,,, STONE MOUNTAIN, GA,US,30087,33.8130511,-84.1164749
HGA6,97 PEACHTREE ST SW,,, ATLANTA, GA,US, 30303-3409,33.752103,-84.392579
VUPY,2501 Rockhouse Road,,, Lithia Springs, GA,US,30122,33.7389573,-84.59851859999999
ATL8,2201 Thornton Road,,, Lithia Springs, GA,US, 30122-3895,33.7442714,-84.5926278
UGA3,2160 Breckinridge Blvd Bldg 100,,, Lawrenceville, GA,US,30043,33.9684925,-84.0803263
MGE3,808 Hog Mountain Road,,, Jefferson, GA,US,30549,34.1599071,-83.6282751
SAV1,Georgia Ports Authority,,, Garden City, GA,US,31408,32.1284294,-81.15145869999999
VUKG,3201 Centre Parkway,,, East Point, GA,US,30344,33.650701,-84.5087824
ATL9,2232 Northmont Parkway,,, Duluth, GA,US,30096,33.9756756,-84.1143204
MGE7,650 Braselton Avenue,,, Braselton, GA,US,30517,34.1193722,-83.77390419999999
MGE1,650 Broadway Avenue,,, Braselton, GA,US,30517,34.1072309,-83.7746827
SUAG,150 Leo Taylor Ln,,, Ball Ground, GA,US,30107,34.3119233,-84.3983675
VUGO,300 Interstate West Parkway,,, Austell, GA,US,30168,33.7700639,-84.5932823
VUGH,7875 White Road,,, Austell, GA,US,30168,33.7666483,-84.5788802
SUOL,305 Bucknell Court,,, Atlanta, GA,US,30336,33.7423077,-84.56570239999999
VUMF,500 PALMETTO LOGISTICS PKWY ,,, PALMETTO , GA,US,30268,33.5401199,-84.6436616
TJA2,2302 MARIETTA BLVD NW,,, Atlanta, GA,US,30318,33.8185004,-84.4514787
PGA1,429 Toy Wright Rd,,, Jefferson, GA,US, 30549-1614,34.1752162,-83.6503335
KGA6,3201 Centre Parkway,,, ATLANTA, GA,US,30344,33.650701,-84.5087824
HAT9,2201 Thornton Road,,, , Lithia Springs ,US, GA, 30122-3895,
VUAT,6855 Shannon Pkwy,,, Union City, GA,US,30291,33.5651798,-84.5416053
HGA3,2160 Breckenridge Blvd,,, Lawrenceville, GA,US,30043,33.9684925,-84.0803263
VUCG,1595 Oakley Industrial Blvd,,, FAIRBURN, GA,US,30213,33.5298152,-84.5991731
IUSE,10 Sonny Perdue Drive,,, SAVANNAH, GA,US, 31408-8083,32.1005356,-81.18644619999999
XEW2,6855 SHANNON PKWY ,,, UNION CITY , GA,US, 30291-2009,33.5651798,-84.5416053
GAT1,86 5th St NW,,, Atlanta, GA,US,30308,33.7765639,-84.3900002
SUAX,394 COMMERCE BLVD,,, Athens, GA,US,30606,33.9335474,-83.47523249999999
SUGE,5975 Shiloh Road ,,, Alpharetta, GA,US,30005,34.1170726,-84.2009514
CSG1,280 BRIDGEPORT PKWY,,, MORELAND, GA,US, 30259-2867,33.3137716,-84.7838756
AGS1,2150 DISCOVERY DR,,, APPLING, GA,US, 30802-0078,33.5032332,-82.3234997
PDK2,4905 Derrick Rd,,, ATLANTA, GA,US, 30349-1608,33.6208408,-84.5884585
XIX8,235 HOG MOUNTAIN RD,,, JEFFERSON, GA,US, 30549-2009,34.1569925,-83.63717059999999
VUQI,512 Liberty Expressway,,, Albany, GA,US,31705,31.5542498,-84.11222269999999
VUBQ,700 PALMETTO LOGISTICS PKWY STE A,,, PALMETTO, GA,US, 30268-2547,33.5459364,-84.6438519
UGA4,2232 Northmont Parkway,,, DULUTH, GA,US,30096,33.9756756,-84.1143204
SGA1,4925 AVALON RIDGE PKWY,,, PEACHTREE CORNERS, GA,US, 30071-1571,33.9649572,-84.195762
AGS2,429 Toy Wright Rd.,,, Jefferson, GA,US, 30549-1614,34.1752162,-83.6503335
UGA2,2302 MARIETTA BLVD NW,,, ATLANTA, GA,US, 30318-1327,33.8185004,-84.4514787
VUJL,6710 OAKLEY INDUSTRIAL BLVD,,, UNION CITY, GA,US, 30291-5125,33.5739349,-84.52320189999999
SGA2,1707 Blairs Bridge Rd,,, Lithia Springs, GA,US, 30122-3120,33.7705922,-84.63186809999999
VUAP,1871 WILLOW SPRINGS CHURCH RD,,, SOCIAL CIRCLE, GA,US, 30025-4693,33.6352293,-83.6808485
SAV4,800 PINE MEADOW DR,,, POOLER, GA,US, 31322-9374,32.0735516,-81.22062559999999
VUOJ,250 Declaration Avenue,,, McDonough, GA,US,30253,33.395573,-84.1560442
VUPN,340 Westridge Parkway,,, McDonough, GA,US,30253,33.4042901,-84.1929612
XLAH,580 Raco Pkwy,,, Pendergrass, GA,US,30567,34.1988809,-83.6039097
VUTE,1020 SH Morgan Pkwy,,, Pooler, GA,US,31322,32.1068027,-81.2701224
SUNB,320 Telfair Rd,,, Savannah, GA,US,31415,32.0767969,-81.14270309999999
SULE,100 Solutions Parkway,,, Thomaston, GA,US,30286,32.9056744,-84.3020081
ATL7,6855 Shannon Pkwy,,, Union City, GA,US, 30291-2091,33.5651798,-84.5416053
DSM5,500 32nd Street SW,,, BONDURANT, IA,US,50035,41.6740025,-93.46828769999999
HDS9,200 SE 37TH ST,,, GRIMES, IA,US, 50111-5196,41.6565929,-93.7932699
MLI1,N DIVISION ST,,, DAVENPORT, IA,US,52806,41.5698704,-90.600442
BOI2,5295 E. Franklin Road,,, NAMPA, ID,US,83687,43.6042125,-116.4989961
ICH4,227 West Monroe St,,, CHICAGO, IL,US,60606,41.8804013,-87.6347194
ICH5,111 E Wacker Dr,,, Chicago, IL,US,60601,41.8876241,-87.62365129999999
SIL1,17051 S Cicero Avenue,,, Country Club Hills, IL,US,60478,41.57928039999999,-87.73091989999999
MDW9,2865 Duke parkway,,, Aurora, IL,US,60563,41.8149182,-88.2127221
XUSN,4200 Ferry Rd,,, Aurora, IL,US,60502,41.8097271,-88.2229052
SUON,1703 S Veterans Pkwy,,, Bloomington, IL,US,61701,40.4602087,-88.97212689999999
CHI3,2720 N Clark St,,, Chicago, IL,US,60614,41.9319519,-87.64495079999999
HIL1,1111 Cherry Street,,, Chicago, IL,US,60642,41.9020811,-87.65209910000002
HIL2,1111 N Cherry Ave,,, Chicago, IL,US, 60642-4204,41.9020811,-87.65209910000002
CHI1,750 S Halsted St,,, Chicago, IL,US,60607,41.8719566,-87.6475869
TIL1,1111 N Cherry Ave,,, Chicago, IL,US,60642,41.9020811,-87.65209910000002
SUGD,6033 N Sheridan Rd,,, Chicago, IL,US,60660,41.9920625,-87.65477589999999
STL4,3050 Gateway Commerce Center DR S,,, Edwardsville, IL,US, 62025-2815,38.771493,-90.0402373
STL6,3931 Lakeview Corporate Drive,,, Edwardsville, IL,US,62025,38.7842299,-90.07730470000001
STL7,3931 Lakeview Corporate Drive,,, Edwardsville, IL,US,62025,38.7842299,-90.07730470000001
VUPS,3049 Westway Drive,,, Edwardsville, IL,US,62025,38.7705078,-90.0504492
VUOK,21837 W. Mississippi Ave,,, Elwood, IL,US,60421,41.4054992,-88.14149839999999
SUEJ,9462 Franklin Avenue,,, Franklin Park, IL,US,60131,41.9346166,-87.8623222
MDW2,250 Emerald Drive,,, Joliet, IL,US,60433,41.4832892,-88.07114279999999
MDW4,201 EMERALD DR,,, JOLIET, IL,US, 60433-3281,41.4874158,-88.0715055
MDW7,6605 Monee Manhattan Road,,, Monee, IL,US,60449,41.4241572,-87.7732585
SUAP,23824 W. Andrew Rd.,,, Plainfield, IL,US,60585,41.6601771,-88.1999355
MDW6,1125 W REMINGTON BLVD,,, ROMEOVILLE, IL,US, 60446-6529,41.6727638,-88.11551039999999
XLAB,1701 Normantown Rd,,, Romeoville, IL,US,60446,41.6433218,-88.14530289999999
SUPG,3725 Swenson Rd,,, St Charles, IL,US,60174,41.9078119,-88.2691574
MDW8,1750 Bridge Drive,,, Waukegan, IL,US,60085,42.3275841,-87.9013954
SUSF,840 Wheeling Rd,,, Wheeling, IL,US,60090,42.1234671,-87.9282547
ORD6,1250 N Mittel Blvd,,, Wood Dale, IL,US,60191,41.9871215,-87.9875254
UIL2,1250 N Mittel Blvd,,, Wood Dale, IL,US,60191,41.9871215,-87.9875254
ICT1,1250 N Mittel Blvd,,, Wood Dale, IL,US,60191,41.9871215,-87.9875254
SUEI,8 GALAXY WAY,,, Woodstock, IL,US,60098,42.2830897,-88.41448559999999
RFD2,41W368 Freeman Road,,, HUNTLEY, IL,US,60142,42.12738299999999,-88.420852
KRB6,4200 FERRY RD,,, Aurora, IL,US,60563,41.8097271,-88.2229052
MAJ2,7201 W 24th ST,,, RIVERSIDE, IL,US,60546,41.8473968,-87.8047648
MAJ5,1351 E Ogden Ave,,, NAPERVILLE, IL,US,60563,41.7964616,-88.1204442
IUSM,4200 FERRY RD,,, NAPERVILLE, IL,US,60563,41.8097271,-88.2229052
SMO2,1659 SAUGET BUSINESS BLVD,,, EAST SAINT LOUIS, IL,US, 62206-1455,38.5823975,-90.1497914
VUAU,6500 W 51ST ST,,, CHICAGO, IL,US,60638,41.8006164,-87.7858637
MAG4,30 W 63rd St,,, Westmont , IL,US,60559,41.7741614,-87.9770588
RAC2,3940 S. Lakeside Dr.,,, WAUKEGAN, IL,US,60085,42.3341192,-87.8959943
VUCL,1460 CARGO CT,,, MINOOKA, IL,US, 60447-8442,41.4460994,-88.30118739999999
HLU9,3931 LAKEVIEW CORPORATE DR,,, EDWARDSVILLE, IL,US, 62025-2801,38.7842299,-90.07730470000001
MAE3,6939 Dempster St,,, MORTON GROVE, IL,US,60053,42.0406309,-87.7979568
ARR1,4200 FERRY RD,,, AURORA, IL,US, 60502-9552,41.8097271,-88.2229052
MAG3,404 W Army Trail Rd,,, BLOOMINGDALE, IL,US,60188,41.9380117,-88.115453
VUI2,101 Center Point Drive,,, ROCHELLE, IL,US,61068,41.9206864,-89.10561109999999
SIL3,27W501 NORTH AVE,,, West Chicago, IL,US, 60185-1524,41.9086413,-88.15495229999999
ORD5,7001 VOLLMER RD ,,, MATTESON , IL,US, 60443-1502,41.5252239,-87.78775010000001
IGQ2,23257 S. Central Avenue,,, UNIVERSITY PARK, IL,US, 60484-3271,41.4672667,-87.749752
IGQ1,2201 W 159TH ST,,, HARVEY, IL,US, 60428-4804,41.600395,-87.67478489999999
HIL3,30260 Graaskamp Blvd,,, WILMINGTON, IL,US, 60481-2007,41.3376321,-88.2069477
MAG,3404 W Army Trail Rd,,, Bloomingdale, IL,US,60188,41.94186819999999,-88.16699849999999
ICH3,500 W. Madison,,, Chicago, IL,US,60661,41.8823361,-87.6403662
ICH1,135 S LaSalle St.,,, Chicago, IL,US,60603,41.8811721,-87.63186879999999
HMW1,30260 S GRAASKAMP BLVD ,,, WILMINGTON , IL,US, 60481-2007,41.3376321,-88.2069477
MAC1,3116 S. Rt. 59,,, suite #104, Naperville,US, IL,60564,
ORD2,23714 W Amoco Rd,,, CHANNAHON, IL,US, 60410-8758,41.4517867,-88.18822349999999
ICH6,130 E Randolph St,,, Chicago, IL,US,60601,41.8849027,-87.62326569999999
ICH2,222 W Merchandise Mart Plaza,,, Chicago, IL,US,60654,41.8884096,-87.6354498
UIL1,1111 N CHERRY AVE,,, CHICAGO, IL,US, 60642-4204,41.9020811,-87.65209910000002
SIL2,7555 Linder Avenue,,, Skokie, IL,US,60077,42.01831079999999,-87.7636315
VUQO,1800 Steward Rd,,, Rochelle, IL,US,61068,41.8953703,-89.03125039999999
VUTG,100 E MILLSDALE RD,,, Elwood, IL,US,60421,41.4498666,-88.07392720000001
VUWI,4015 Lakeview Corporate Drive,,, EDWARDSVILLE, IL,US,62025,38.7966963,-90.0775755
ORD3,24101 S Frontage Rd W,,, CHANNAHON, IL,US,60410,41.4455187,-88.193946
MAE4,4101 W 95th St,,, Oak Lawn, IL ,US,60453,41.7194634,-87.72369359999999
VHNF,6521 Monee Manhattan Rd,,, MONEE, IL ,US,60449,41.425767,-87.770071
RJY1,3301 Wayne Trace,,, FORT WAYNE, IN,US,46806,41.0569419,-85.09585539999999
MQJ2,19 BOB GLIDDEN BLVD,,, WHITELAND, IN,US, 46184-9108,39.5493394,-86.0468879
UIN1,710 S. Girls School Road,,, Indianapolis, IN,US, 46231-1132,39.7557158,-86.2901225
VUH2,2001 Commerce Parkway,,, FRANKLIN, IN,US,46131,39.5054646,-86.0484991
PIN1,5510 EXPLORATION DR,,, Indianapolis, IN,US, 46241-9007,39.6828037,-86.3145389
TIN1,710 S. Girls School Road,,, Indianapolis, IN,US,46231,39.7557158,-86.2901225
PISA,900 Patrol Rd,,, Jeffersonville, IN,US, 47130-7716,38.3786917,-85.6869777
IND2,715 Airtech Pkwy,,, Plainfield, IN,US, 46168-7442,39.70081,-86.3433726
VUQD,3101 IN-62,,, Mt Vernon, IN,US,47620,37.9353237,-87.8695194
VUQH,381 Airtech Pkwy,,, Plainfeild, IN,US,46168,39.7177264,-86.34293579999999
VUQF,2100 Innovation Blvd,,, Mooresville, IN,US,46158,39.6232349,-86.4830961
MQJ1,4412 W 300 N,,, GREENFIELD, IN,US, 46140-7099,39.8282847,-85.8872399
SIN9,305 Chaney Ave.,,, GREENWOOD, IN,US,46143,39.618196,-86.06838499999999
FWA4,9798 Smith Road,,, FORT WAYNE, IN,US, 46809-9771,40.9951158,-85.2111207
IND9,1151 S GRAHAM RD,,, GREENWOOD, IN,US, 46143-7830,39.6001918,-86.06357430000001
HIN9,19 BOB GLIDDEN BLVD,,, WHITELAND, IN,US, 46184-9108,39.5493394,-86.0468879
VUHA,700 Chase Street,,, Gary, IN,US,46404,41.5982283,-87.379212
VUAJ,1716 INNOVATION BLVD,,, CLAYTON, IN,US, 46118-9524,39.6207979,-86.4912348
IND4,710 S. Girls School Rd,,, Indianapolis, IN,US, 46231-1132,39.7557158,-86.2901225
IND7,9101 Orly Drive,,, Indianapolis, IN,US, 46241-9605,39.6747924,-86.3259504
VUMC,650 Commerce Pkwy W Drive,,, Greenwood, IN,US,46143,39.61016619999999,-86.0668977
SUOJ,1615 Fletcher Ave,,, FORT WAYNE, IN,US,46803,41.0708103,-85.11225910000002
SDF8,900 Patrol Rd,,, Jeffersonville, IN,US, 47130-7716,38.3786917,-85.6869777
IND8,712 S. Girls School Rd.,,, Marion, IN,US,46231,39.7523303,-86.2891029
XUSE,5490 Industrial Court,,, Whitestown, IN,US,46075,39.9631093,-86.38170250000002
PUR1,1198 Third Street,,, West Lafayette, IN,US,47907,40.4275696,-86.92148209999999
IND5,800 Perry Road,,, Plainfield, IN,US, 46168-7637,39.6946446,-86.360012
ICT2,7130 N BROADWAY AVE,,, PARK CITY , KS,US, 67219-1410,37.8140814,-97.3356702
FOE1,9400 LEAVENWORTH RD,,, KANSAS CITY, KS,US,66109,39.1471468,-94.7998521
MKC6,6925 Riverview Avenue,,, Kansas City, KS,US,66102,39.0969834,-94.7390716
XUSK,31450 W 196th St.,,, Edgerton, KS,US,66021,38.7754355,-94.94996379999999
PKC1,30901 W 185th St,,, EDGERTON, KS,US,66021,38.7898018,-94.94501980000001
MCI7,27200 W157th St,,, New Century, KS,US,66031,38.8440155,-94.9020693
VUI3,17150 Mercury St.,,, OLATHE, KS,US,66061,38.8198564,-94.88642779999999
MKC4,19645 Waverly Rd,,, Edgerton, KS,US, 66021-9588,38.772169,-94.94547899999999
TUL1,2654 North Highway 169,,, Coffeyville, KS,US, 67337-9254,37.1045989,-95.5858513
XUXD,5000 Shelbyville Rd,,, Louisville, KT,US,40207,38.2467204,-85.6232509
RRPR,1910 International Way ,,, HEBRON , KT,US,41048,39.0868491,-84.7039607
CVG8,7968 Kentucky Drive,,, Florence, KY,US,41042,38.982761,-84.62951699999999
TON3,5540 Mino Lane,,, LOUISVILLE, KY,US,40219,38.1375575,-85.7016871
ZAP1,9101 Minor Lane,,, LOUISVILLE, KY,US,40219,38.1181269,-85.7141108
ZAP2,9101 Minor Lane,,, LOUISVILLE, KY,US,40219,38.1181269,-85.7141108
ZAP3,12415 OLD LAGRANGE RD,,, LOUISVILLE, KY,US, 40245-1959,38.2911166,-85.51231109999999
RGA1,4600 OLYMPIC BLVD,,, ERLANGER, KY,US, 41018-3134,39.0449998,-84.619191
RJY3,1 General Way,,, MAYFIELD, KY,US,42066,36.7888203,-88.6460705
RNM9,1075 Aviation Blvd,,, HEBRON, KY,US,41048,39.0807599,-84.6674131
XUXC,12415 OLD LAGRANGE RD,,, LOUISVILLE, KY,US, 40245-1959,38.2911166,-85.51231109999999
SDF4,376 Zappos.com Blvd,,, Shepherdsville, KY,US, 40165-8556,37.9822049,-85.68393619999999
SDF6,271 Omega Pkwy,,, Shepherdsville, KY,US, 40165-8505,37.9751189,-85.6844175
SDF9,100 W. Thomas P. Echols Lane,,, Shepherdsville, KY,US,40165,37.9850358,-85.68907039999999
PISC,271 Omega Parkway,,, Shepherdsville, KY,US,40165,37.9751189,-85.6844175
PISB,376 Zappos.com Blvd,,, Shepherdsville, KY,US,40165,37.9822049,-85.68393619999999
VUVC,2500 Export Dr,,, Louisville, KY,US,40219,38.1206068,-85.7145857
SUSA,7201 Intermodal Dr,,, Louisville, KY,US,40258,38.1601259,-85.8885961
SDF2,4360 Robards Ln,,, Louisville, KY,US, 40218-4512,38.1952089,-85.6926801
SUBH,817 Winchester Rd,,, Suite 130, Lexington,US, KY,40505,
LEX1,1850 Mercer Drive,,, Lexington, KY,US, 40511-1013,38.075996,-84.5336866
LEX2,172 Trade St.,,, Lexington, KY,US, 40511-2607,38.0754374,-84.55006519999999
SU2A,1201 Aviation Blvd,,, Hebron, KY,US,41048,39.0809752,-84.6749099
CVG1,1155 Worldwide Blvd.,,, Hebron, KY,US, 41048-8640,39.0845666,-84.7137316
CVG3,3680 Langley Dr.,,, Hebron, KY,US, 41048-9135,39.0626563,-84.7181684
CVG2,1600 Worldwide Blvd.,,, Hebron, KY,US, 41048-8640,39.0870356,-84.72600560000001
CVG7,2285 Litton Lane,,, Hebron, KY,US, 41048-8435,39.0756233,-84.7186227
SUAA,1201 Aviation Blvd,,, Hebron, KY,US,41048,39.0809752,-84.6749099
PICV,1155 Worldwide Blvd,,, Hebron, KY,US,41048,39.0845666,-84.7137316
IVSB,3521 Point Pleasant Rd,,, Hebron, KY,US,41048,39.0570239,-84.6408821
SUDB,8179 Dixie Highway,,, Florence, KY,US,41042,38.9735991,-84.6144182
SUDA,8179 Dixie Hwy,,, Florence, KY,US,41042,38.9735991,-84.6144182
XUXZ,5540 minor lane,,, LOUISVILLE, KY,US,40219,38.1375575,-85.7016871
IVSA,4620 Olympic Blvd,,, Erlanger, KY,US,41018,39.0449972,-84.6198263
SDF1,1050 South Columbia,,, Campbellsville, KY,US, 42718-2454,37.3281258,-85.3512094
LUK7,649 OMEGA PKWY,,, SHEPHERDSVILLE, KY,US, 40165-8501,37.968599,-85.68233169999999
LFT1,3550 NE EVANGELINE TRWY,,, CARENCRO, LA,US,70520,30.2668961,-92.0177142
SHV1,1625 CORPORATE DR,,, SHREVEPORT, LA,US, 71107-6341,32.5361867,-93.7781241
TMA3,30 Northampton Street,,, Boston, MA,US,2118,42.3333624,-71.0753857
UMA3,30 Northampton Street,,, Boston, MA,US,2118,42.3333624,-71.0753857
BOS8,870 Commonwealth Ave,,, Brookline, MA,US,2215,42.3506278,-71.11422519999999
SUSL,153 Washington St,,, East Walpole, MA,US,2032,42.1629705,-71.21619799999999
SUSK,153 Washington St,,, East Walpole, MA,US,2032,42.1629705,-71.21619799999999
HEA1,9 Livingstone St,,, DORCHESTER CENTER, MA,US, 02124-3903,42.2849232,-71.0903518
BOS6,201 Beacham St,,, Everett, MA,US, 02149-5518,42.393556,-71.053682
BOS7,1180 Innovation Way,,, Fall River, MA,US,2722,41.762472,-71.09731599999999
SUHM,142 Franklin St,,, Melrose, MA,US,1276,42.4671387,-71.0637516
BOS9,750 Everett St,,, Norwood, MA,US, 02062-2618,42.2096318,-71.1766001
SMA1,10 Creek Brook Drive,,, Haverhill, MA,US, 01832-1548,42.7903817,-71.1268411
SMA2,1025 ELM ST,,, BRIDGEWATER, MA,US, 02324-1078,41.988099,-71.02221109999999
UMA4,201 Beacham St,,, Chelsea, MA,US,2150,42.393556,-71.053682
MAS1,220 Campus Center ,,, Amherst, MA,US,1003,42.390911,-72.5312424
TMD1,5501 Holabird Ave,,, Baltimore, MD,US,21224,39.2702351,-76.5477394
XUSL,610 Chelsea Rd,,, Aberdeen, MD,US,21001,39.448411,-76.2150322
XUSM,610 Chelsea Road,,, Aberdeen, MD,US,21001,39.448411,-76.2150322
XUSP,XUSP - 3PL Kuehne-Nagel,,, Aberdeen, MD,US,21001,39.5095556,-76.16411970000001
44621,4200 Guilford Dr,,, Suite B1, College Park,US, MD,20740,
MDT2,600 Principio Parkway West,,, North East, MD,US,21901,39.5945208,-76.003736
SUOC,8750 Larkin Rd,,, Savage, MD,US, 20763-3200,39.1304007,-76.8106445
DCA1,1700 Sparrows Point Boulevard,,, Sparrows Point, MD,US,21219,39.2304166,-76.46918880000001
HNJ2,13905 Crayton Blvd,,, Hagerstown, MD,US,21742,39.6992807,-77.7262726
SDC2,2 UNIVERSITY BLVD W,,, SILVER SPRING, MD,US, 20901-2438,39.0204206,-77.01386029999999
SMD1,7200 Dorsey Run Rd,,, ELKRIDGE, MD,US, 21075-6884,39.1713824,-76.761245
UMD1,5501 Holabird Ave,,, Baltimore, MD,US,21224,39.2702351,-76.5477394
DCA6,6001 BETHLEHEM BLVD,,, Baltimore, MD,US,21219,39.2344112,-76.4916803
XLX1,1115 WESEL BLVD,,, HAGERSTOWN, MD,US, 21740-8126,39.6335781,-77.75407299999999
VUCF,1467 Perryman Rd,,, ABERDEEN, MD,US,21001,39.4735513,-76.20059789999999
BFN1,6001 BETHLEHEM BLVD ,,, SPARROWS POINT , MD,US, 21219-2504,39.2344112,-76.4916803
HSE1,13905 Crayton Blvd ,,, HAGERSTOWN , MD,US, 21742-3690,39.6992807,-77.7262726
XBW1,5300 Nottingham Rd. ,,, NOTTINGHAM , MD,US,21236,39.3756419,-76.4476179
HGR2,1280 Wessel Blvd,,, HAGERSTOWN, MD,US,21740,39.6357351,-77.75365719999999
MTN7,913 OLD PHILADELPHIA RD,,, ABERDEEN, MD,US, 21001-4024,39.4886083,-76.1801852
MAF1,5463 Wisconsin Ave ,,, Chevy Chase Village , MD,US,20815,38.9622328,-77.0846007
MTN3,1701 Finishing Mill Road,,, SPARROWS POINT, MD,US,21219,39.2287614,-76.475594
VUAQ,6201 Seaforth St,,, BALTIMORE, MD,US,21224,39.2700568,-76.5421398
IUSL,600 PRINCIPIO PKWY W,,, NORTH EAST, MD,US, 600 PRINCIPIO PKWY W,39.5945208,-76.003736
KRB5,600 PRINCIPIO PKWY W,,, NORTH EAST, MD,US, 21901-2914,39.5945208,-76.003736
VHND,1700 SPARROWS POINT BLVD,,, SPARROWS POINT, MD ,US,21219,39.2304166,-76.46918880000001
SUHX,104A GLENN ST,,, LAWRENCE, ME,US,1843,42.68383619999999,-71.1836275
TMI1,900 Oakwood St.,,, YPSILANTI, MI,US,48197,42.2497637,-83.6287739
UMI2,999 Chicago Road,,, Troy, MI,US,48083,42.5439281,-83.11454859999999
DET2,50500 Mound Rd,,, Shelby Charter Township, MI,US,48317,42.6643125,-83.0505026
XUSR,5425 Dixie Highway,,, Saginaw, MI,US,48601,43.38322110000001,-83.8940107
DET1,39000 Amrhein Road,,, Livonia, MI,US,48150,42.3763435,-83.42332960000002
SUTA,4503 Airwest DR SE,,, Kentwood, MI,US,49512,42.8812082,-85.57164139999999
SUSI,7194 Big Sky Drive Suite 5,,, Holly, MI,US,48442,42.8331506,-83.5624009
DET7,33700 Prescott Street,,, ROMULUS, MI,US,48174,42.1733663,-83.36441219999999
VUAD,350 E 64TH ST,,, HOLLAND, MI,US,49423,42.7387679,-86.0884318
DTW3,33701 Prescott Road,,, ROMULUS, MI,US,48174,42.1716562,-83.3696286
MEM3,1615 COMMERCE PKWY N ,,, HORN LAKE , MI,US, 38637-2313,34.9216241,-90.019438
SMI1,1400 E 10 MILE RD,,, HAZEL PARK, MI,US, 48030-1263,42.47434459999999,-83.0931452
DET3,1200 FEATHERSTONE RD,,, PONTIAC, MI,US, 48342-1938,42.6459929,-83.2554248
GRR1,4199 68th Street SE,,, CALEDONIA, MI,US, 49316-9191,42.8413352,-85.56242259999999
DTW1,32801 Ecorse Rd.,,, Romulus, MI,US,48174,42.2505224,-83.3622427
UMN1,763 Kasota Ave,,, Minneapolis, MN,US, 55414-2842,44.9837275,-93.21732399999999
STC2,2811 BEVERLY RD STE 200,,, EAGAN, MN,US, 55121-5501,44.8534635,-93.1351406
MIN1,311 SE Harvard Street,,, Minneapolis, MN,US,55414,44.9733448,-93.2301191
UMN2,6105 Trenton Ln N,,, MINNEAPOLIS, MN,US,55442,45.06461460000001,-93.4106906
SUVA,8933 Lyndale Ave S,,, Bloomington, MN,US,55420,44.8414271,-93.2876806
HMS9,9800 217TH ST W,,, LAKEVILLE, MN,US, 55044-5076,44.634937,-93.26664559999999
STP2,10655 COUNTY ROAD 81,,, MAPLE GROVE, MN,US, 55369-4016,45.1176286,-93.4166284
MSP1,2601 4th Avenue East,,, Shakopee, MN,US,55379,44.7999066,-93.48966589999999
SMN1,7500 Setzler Parkway,,, BROOKLYN PARK, MN,US, 55445-1879,45.1196512,-93.3784546
MSP4,10608 HUDSON RD,,, WOODBURY, MN,US, 55129-9113,44.9445474,-92.89096149999999
MSP6,9800 217th Street West,,, LAKEVILLE, MN,US, 55044-8510,44.634937,-93.26664559999999
SUHV,10335 Naples ST NE,,, Blaine, MN,US,55449,45.157835,-93.1832354
TMN1,763 Kasota Ave,,, Minneapolis, MN,US,55414,44.9837275,-93.21732399999999
VUPV,2001 Premier Pkwy,,, Saint Peters, MO,US,63376,38.8140779,-90.56637959999999
BLV2,8850 Springdale Ave,,, BERKLEY, MO,US,63134,38.725928,-90.322621
MCI2,14500 BOTTS RD ,,, KANSAS CITY , MO,US, 64147-1302,38.868685,-94.55119499999999
STL8,4000 Premier Parkway,,, SAINT PETERS, MO,US, 63376-3447,38.80902,-90.5715927
STL3,3200 E Sawyer Rd,,, Republic, MO,US, 65738-2779,37.1683039,-93.42456229999999
VUAF,1005 COMMERCIAL DR,,, OWENSVILLE, MO,US, 65066-2340,38.3597829,-91.4891497
VUH8,4433 Fyler Avenue,,, SAINT LOUIS, MO,US,63116,38.6000501,-90.2648514
VUI4,303 Nelson Avenue,,, NEOSHO, MO,US,64850,36.8276763,-94.3700029
VUPU,14916 STATE HIGHWAY 177,,, Jackson, MO,US,63755,37.482172,-89.5224186
MEM2,191 NORFOLK SOUTHERN WAY,,, BYHALIA, MS,US, 38611-2306,34.9902978,-89.59720039999999
44562,219 MADISON COUNTY PKWY,,, CANTON, MS,US, 39046-2100,32.5863145,-90.0786892
PIL1,1615 COMMERCE PKWY N,,, HORN LAKE, MS,US, 38637-2313,34.9216241,-90.019438
MEM6,11505 Progress Way,,, OLIVE BRANCH, MS,US,38654,34.9520949,-89.78406079999999
SUEH,1760 West Terra Lane,,, OFallon, MT,US,63366,38.8045505,-90.7540126
VUAM,422 N CHIMNEY ROCK RD,,, GREENSBORO, NC,US, 27410-6249,36.09179950000001,-79.9202072
SNC2,10622 BRYTON CORPORATE CENTER DR,,, HUNTERSVILLE, NC,US, 28078-0654,35.3732826,-80.8240245
SNC3,5 NATIONAL DR,,, DURHAM, NC,US, 27703-9950,35.8331962,-78.6665373
CLT6,12220 Carolina Logistics Drive,,, PINEVILLE, NC,US,28134,35.0993282,-80.91168549999999
HNC3,1850 E 3RD ST,,, CHARLOTTE, NC,US, 28204-3238,35.2096935,-80.8264901
GSO1,1656 OLD GREENSBORO RD,,, KERNERSVILLE, NC,US,27284,36.1062022,-80.0227642
SUHL,1213 Maple Avenue,,, Burlington, NC,US,27215,36.08049949999999,-79.43038969999999
CLT2,10240 Old Dowd Rd,,, Charlotte, NC,US, 28214-8082,35.2456963,-80.99667459999999
CLT3,6500 Davidson Hwy,,, Concord, NC,US,28027,35.4427517,-80.68660589999999
RDU1,4851 Jones Sausage Rd ,,, GARNER, NC,US, 27529-9438,35.7156982,-78.5880123
XLBA,1123 4th ST SW,,, Conover, NC,US,28613,35.700788,-81.2390659
LAS2,3837 Bay Lake Trail,,, North Las Vegas, NC,US, 89030-4428,36.2287803,-115.1055348
VUH6,5900 Long Creek Park Dr,,, CHARLOTTE, NC,US,28269,35.3271184,-80.83950879999999
RPNC,165 One Genesis Way ,,, SPRUCE PINE , NC,US,28777,35.8987314,-82.0109765
HCL9,12220 Carolina Logistics Drive,,, PINEVILLE, NC,US,28134,35.0993282,-80.91168549999999
CLT4,8000 TUCKASEEGEE RD,,, CHARLOTTE, NC,US,28214,35.2436142,-80.9615635
SNC3,5 National Way,,, DURHAM, NC,US,27703,35.9105453,-78.84154509999999
TNC1,300 Dalton Ave.,,, CHARLOTTE, NC,US, 28206-3118,35.2399542,-80.8309453
RJY2,1450 Atlantic Ave,,, ROCKY MOUNT, NC,US,27801,35.97011,-77.781988
UNC2,3200 Bush Street,,, Raleigh, NC,US,27609,35.8238136,-78.6129254
RDU2,2095 West Market Street,,, SMITHFIELD, NC,US,27577,35.540048,-78.3755462
UNC3,4525 Statesville Ave,,, CHARLOTTE, NC,US,28269,35.274162,-80.8361559
SUHI,870 S. 16th St.,,, Aurora, NE,US,68818,40.8483791,-97.9952653
SUHA,9203 J Street,,, Omaha, NE,US,68127,41.2137227,-96.0555394
VFSN,7401 F ST,,, OMAHA, NE,US,68127,41.2187812,-96.0261247
ASH2,15 STEELE RD,,, HUDSON, NH,US, 03051-5223,42.7179684,-71.423234
ASH1,267 LOWELL RD,,, HUDSON, NH,US, 03051-4937,42.7221364,-71.4264113
HEW9,HEW9 343 HALF ACRE RD,,, CRANBURY, NJ,US, 08512-3253,40.3154928,-74.49967819999999
UNJ1,940 Monroe Street,,, Hoboken, NJ,US,7030,40.7502706,-74.0371655
PNE2,18 Applegate Dr.,,, Robbinsville, NJ,US, 08691-2342,40.20199059999999,-74.57897559999999
VUKI,400 Arlington Blvd,,, Swedesboro, NJ,US,8085,39.7706179,-75.3359341
SUCD,80 Carter Dr.,,, Edison, NJ,US,8817,40.5310521,-74.3959496
VUTI,380 DEANS RHODE HALL RD,,, MONROE TOWNSHIP, NJ,US, 08831-3004,40.3779434,-74.4587909
KMA8,400 ARLINGTON BLVD,,, SWEDESBORO, NJ,US, 08085-1293,39.7706179,-75.3359341
VUKZ,400 Arlington Blvd,,, Logan Township, NJ,US,8085,39.7706179,-75.3359341
IVSC,1225 Forest Parkway,,, West Deptford, NJ,US,8066,39.8287632,-75.2130787
TEB3,2651 Oldmans Creek Rd,,, Logan Township, NJ,US,8085,39.7570461,-75.3787453
VUAR,275 BLAIR RD,,, AVENEL, NJ,US, 07001-2140,40.5793382,-74.25708929999999
VUBS,121 RIDGE RD,,, JAMESBURG, NJ,US, 08831-3025,40.3713982,-74.460989
SUHE,239 Old New Brunswick Road Dock 7&8,,, Piscataway, NJ,US,8854,40.5534817,-74.47326129999999
ACY1,240 Mantua Grove Road,,, West Deptford, NJ,US,8066,39.8230215,-75.2161818
TTN2,343 HALF ACRE RD ,,, CRANBURY , NJ,US, 08512-3253,40.3154928,-74.49967819999999
SUMA,1201 Jersey Avenue,,, North Brunswick, NJ,US,8902,40.46639800000001,-74.4813203
ABE8,401 Independence Road,,, Florence, NJ,US,8518,40.10838529999999,-74.8007365
SNJ1,5 Dedrick Place,,, West Caldwell, NJ,US, 07006-6304,40.8556791,-74.2923873
SUPH,4201 Tonelle Ave,,, North Bergen, NJ,US,7047,40.7832112,-74.0359794
SUEG,86 Mayfield Ave,,, Edison, NJ,US,8837,40.5040597,-74.3517933
DNJ1,380 Middlesex Ave,,, CARTERET, NJ,US, 07008-3445,40.5643422,-74.2212342
SUPN,4201 Tonelle Ave,,, North Bergen, NJ,US,7047,40.7832112,-74.0359794
SUWB,150 Ethel Road West,,, Piscataway, NJ,US,8854,40.5291071,-74.4319532
VUME,200 Docks Corner Road,,, South Brunswick, NJ,US,8810,40.3633668,-74.4705139
INT2,275 Omar Avenue,,, AVENEL, NJ,US, 07001-2240,40.5836126,-74.25718100000002
SUOM,1230 Highway 34,,, Aberdeen, NJ,US,7747,40.3908342,-74.2211883
VUFC,115 KENNEDY DR,,, SAYREVILLE , NJ,US, 08872-1459,40.4786607,-74.30558789999999
XUSQ,152 Route 206,,, Hillsborough, NJ,US,8844,40.5363611,-74.6179877
IVSD,800 Arlington Blvd,,, Swedesboro, NJ,US,8085,39.7735208,-75.34012469999999
MCO6,800 ARLINGTON BLVD,,, SWEDESBORO , NJ,US, 08085-2594,39.7735208,-75.34012469999999
EWR6,275 Omar Avenue,,, Avenel, NJ,US, 07001-2240,40.5836126,-74.25718100000002
XIX1,18 APPLEGATE DR,,, ROBBINSVILLE, NJ,US,8691,40.20199059999999,-74.57897559999999
TTN6,942 MEMORIAL PKWY,,, PHILLIPSBURG, NJ,US,8865,40.6983634,-75.16929619999999
EWR7,275 Omar Ave,,, Avenel, NJ,US,7001,40.5836126,-74.25718100000002
SUPM,1-AB Terminal Way,,, Avenel, NJ,US,7001,40.5943771,-74.2626766
RPNV,4950 Joule St. ,,, RENO , NJ,US,89502,39.5074608,-119.760157
SNY3,153 NOTCH RD,,, CLIFTON, NJ,US, 07013-3234,40.8649044,-74.1794326
SUOE,74 Kenny Pl,,, Saddle Brook, NJ,US, 07663-5916,40.902822,-74.1017892
TEB4,747 COURSES LANDING RD ,,, PENNS GROVE , NJ,US, 08069-2956,39.6871258,-75.4346776
TEB9,601 Randolph Rd.,,, SOMERSET, NJ,US,8873,40.5395665,-74.5602021
LGA8,380 Middlesex Avenue,,, Carteret, NJ,US,7008,40.5643422,-74.2212342
EWR4,50 New Canton Way,,, Robbinsville, NJ,US, 08691-2350,40.1956494,-74.5660639
BFC1,380 Middlesex Ave,,, CARTERET, NJ,US, 07008-3445,40.5643422,-74.2212342
KNJ2,400 ARLINGTON BLVD,,, SWEDESBORO, NJ,US, 08085-1293,39.7706179,-75.3359341
XEW1,380 Middlesex Ave,,, Carteret, NJ,US,7008,40.5643422,-74.2212342
SNJ2,344 Hurffville Crosskeys rd ,,, SEWELL , NJ,US, 08080-9202,39.7286052,-75.0571448
LGA6,8003 Industrial Avenue,,, Cartaret, NJ,US, 07008-3529,40.5786851,-74.2304771
LGA7,380 Middlesex Avenue,,, Carteret, NJ,US,7008,40.5643422,-74.2212342
LGA9,2170 Route 27,,, Edison, NJ,US,8817,40.5273833,-74.38216539999999
KMA6,400 ARLINGTON BLVD,,, SWEDESBORO, NJ,US, 08085-1293,39.7706179,-75.3359341
MMU9,698 Rte. 46 W. ,,, TETERBORO , NJ,US,7608,40.8645309,-74.05824319999999
ACY2,1101 E PEARL ST,,, BURLINGTON, NJ,US, 08016-1934,40.0864652,-74.8397473
ABQ1,701 Atrisco Vista Blvd,,, ALBUQUERQUE, NM,US, 87120-8701,35.0671779,-106.7892717
VUAY,725 WALTHAM WAY STE 101,,, SPARKS, NV,US, 89437-6614,39.5507447,-119.5471027
LAS1,12300 Bermuda Road,,, HENDERSON, NV,US,89044,35.9652524,-115.1522105
UNV3,2951 N Marion Dr Suite 101-103,,, Las Vegas, NV,US,89115,36.2138466,-115.0721871
VUBN,4800 E TROPICAL PKWY,,, LAS VEGAS, NV,US, 89115-1984,36.268488,-115.0698122
VGT2,6401 Howdy Wells Ave,,, LAS VEGAS, NV,US,89115,36.2583321,-115.0271606
VGT1,5802 E Tropical Parkway,,, LAS VEGAS, NV,US,89115,36.2714595,-115.0441544
VUAN,5550 DONOVAN WAY,,, NORTH LAS VEGAS, NV,US, 89081-2715,36.2619431,-115.0834453
RCLJ,3540 BIRTCHER DR ,,, LAS VEGAS , NV,US,89119,36.0773889,-115.1875264
SNV1,7970 S VALLEY VIEW BLVD STE 130,,, LAS VEGAS, NV,US,89139,36.0449368,-115.1895247
UNV2,1945 E RUSSELL RD SUITES 201-204,,, Las Vegas, NV,US,89119,36.0855677,-115.1260115
TNV2,1945 E. Russell Rd,,, LAS VEGAS, NV,US, 89119-2706,36.0855677,-115.1260115
RJY4,4501 Mitchell St.,,, NORTH LAS VEGAS, NV,US,89081,36.2430466,-115.0964542
HSH1,5801 NICCO WAY,,, LAS VEGAS, NV,US, 89115-6752,36.26662,-115.0482595
LAS7,6001 East Tropical Parkway,,, North Las Vegas, NV,US,89115,36.2660563,-115.0410386
HCA6,2821 MARION DR,,, Las Vegas, NV,US, 89115-3423,36.2112945,-115.0734736
RNO4,8000 North Virginia Street,,, Reno, NV,US,89506,39.6037491,-119.8486126
RNO3,555 Milan Drive,,, McCarran, NV,US,89434,39.551666,-119.4538418
IVSE,2951 MARION DR UNIT 101,,, LAS VEGAS, NV,US,89115,36.213663,-115.0726686
ICSF,2821 MARION DR STE 109,,, LAS VEGAS, NV,US,89115,36.2113378,-115.0734736
LAS6,4550 Nexus Way,,, Las Vegas, NV,US,89115,36.2668804,-115.0744003
RNO1,1600 East Newlands Drive,,, Fernley, NV,US, 89408-8903,39.610682,-119.2120997
SUBD,81 Christopher St,,, Staten Island, NY,US,10303,40.6368051,-74.1643193
SUOX,19 Robert Pitt Drive STE 103,,, Monsey, NY,US,10952,41.1103026,-74.0662675
JFK2,6 W. 35th St,,, New York, NY,US,10001,40.74945690000001,-73.9853983
TNYA,7 W 34th Street,,, New York, NY,US,10001,40.7490211,-73.98530459999999
SYR1,7211 MORGAN RD ,,, CLAY , NY,US, 13090-4534,43.1197112,-76.206142
INY4,599 Lexington Avenue,,, New York, NY,US,10022,40.757962,-73.9708356
INY5,315 Park Ave S,,, NEW YORK, NY,US,10010,40.7405489,-73.9855549
SUGA,4060 Hylan Blvd,,, Staten Island, NY,US,10308,40.5406071,-74.14708739999999
SUOP,1673 NY-17M,,, Chester, NY,US,10918,41.3723128,-74.2907273
ILG2,405 Lexington Ave,,, NEW YORK, NY,US,10174,40.7517105,-73.9755995
INY5,315 Park Avenue South,,, New York, NY,US,10010,40.7405489,-73.9855549
SUEB,135 West 36th Street FL 13,,, New York, NY,US,10018,40.7519328,-73.98830579999999
XUSI,101 Broome Corporate Pkwy Conklin,,, CONKLIN, NY,US,13748,42.0418494,-75.8150766
SUHP,45 Leone Lane,,, CHESTER, NY,US,10918,41.348564,-74.2820278
JFK8,546 Gulf Ave.,,, Staten Island, NY,US,10314,40.6192146,-74.18821559999999
INY1,200 Vesey Street,,, New York, NY,US,10281,40.71256289999999,-74.0158395
MAK3,3620 Long Beach Rd,,, Oceanside , NY,US,11572,40.6221268,-73.6424912
BUF9,4201 Walden Ave,,, Lancaster, NY,US,14086,42.9209344,-78.6243377
SNY2,9210 ATLANTIC AVE,,, OZONE PARK, NY,US, 11416-1517,40.6871551,-73.849809
INY3,300 Park Ave,,, NEW YORK, NY,US,10022,40.7570209,-73.97466949999999
SNY1,2294 ADAM CLAYTON POWELL JR BLVD,,, NEW YORK, NY,US, 10030-2804,40.8152405,-73.94414429999999
VUH3,101 ONEIL ROAD,,, SIDNEY, NY,US,13838,42.3031118,-75.4108002
UNY1,850 3rd Ave.,,, Brooklyn, NY,US,11232,40.65877870000001,-74.00415629999999
UNY2,1080 Leggett Ave,,, BRONX, NY,US,10474,40.81212600000001,-73.8965055
ILG2,405 Lexington Ave,,, New York, NY,US,10174,40.7517105,-73.9755995
ILG9,111 E. 59th St.,,, New York, NY,US,10022,40.76299640000001,-73.9688899
XUXE,17-19 Union Sq. W.,,, NEW YORK, NY,US,10003,40.7361529,-73.9914515
SUAZ,1189 McDonald Ave,,, Brooklyn, NY,US,11230,40.62442190000001,-73.9755551
ILG8,80 Pine St.,,, New York, NY,US,10005,40.7061589,-74.0068304
VUQC,2020 Ocean Avenue,,, Ronkonkoma, NY,US,11779,40.7938182,-73.12408060000001
SUGC,175 Van Dyke St.,,, Brooklyn, NY,US, 11231-1079,40.6768921,-74.0181692
INY9,165 Broadway,,, NEW YORK, NY,US,10006,40.7096195,-74.01050839999999
ROC1,2600 MANITOU RD,,, ROCHESTER, NY,US, 14653-0002,43.153728,-77.749386
TNY1,850 3rd Ave.,,, Brooklyn, NY,US,11232,40.65877870000001,-74.00415629999999
INY1,200 Vesey St,,, NEW YORK, NY,US,10281,40.71256289999999,-74.0158395
INY7,11 W 42nd Street,,, NEW YORK, NY,US,10036,40.7543961,-73.9817833
UNY5,55 Bay St Brooklyn,,, BROOKLYN, NY,US,11231,40.6730995,-74.00702660000002
ALB1,1835 US ROUTE 9,,, Castleton, NY,US,12033,42.54203589999999,-73.6806326
INY6,30 Rockefeller Plaza,,, New York, NY,US,10112,40.7593755,-73.9799726
JFK9,80 Grumman Rd W,,, Bethpage, NY,US, 11714-5000,40.7434349,-73.4902565
INY9,165 Broadway,,, New York, NY,US,10006,40.7096195,-74.01050839999999
INY4,150 E 53rd St,,, NEW YORK, NY,US,10022,40.75795,-73.9708
INY7,11 W. 42nd St.,,, New York, NY,US,10036,40.7543961,-73.9817833
FDN1,80 Grumman Rd,,, BETHPAGE, NY,US,11714,40.7434349,-73.4902565
SNY4,274 36TH ST,,, BROOKLYN, NY,US, 11232-2408,40.6558874,-74.0072546
SBU1,100 Nicolas Road,,, Stony Brook, NY,US,11794,40.9155336,-73.1227708
UNY3,57-00 49th Place,,, MASPETH, NY,US,11378,40.7210846,-73.9202782
SWF2,1940 ROUTE 52,,, EAST FISHKILL, NY,US,12533,41.5372991,-73.8335108
SNY5,4-09 47TH RD,,, LONG ISLAND CITY, NY,US, 10007-0009,40.7464757,-73.9560041
UNY4,80 Grumman Rd W,,, BETHPAGE, NY,US,11714,40.7434349,-73.4902565
SUPJ,4737 van dam street,,, Long island City, NY,US,11101,40.7415242,-73.9336859
INY6,30 Rockefeller Plaza,,, NEW YORK, NY,US,10112,40.7593755,-73.9799726
SWF1,635 INTERNATIONAL BLVD ,,, ROCK TAVERN , NY,US, 12575-5150,41.516816,-74.137033
SUOG,19 Robert Pitt Drive,,, Monsey, NY,US,10952,41.1103026,-74.0662675
HMW4,263 E Whittier St ,,, COLUMBUS , OH,US, 43206-2323,39.9443561,-82.9899279
CIN1,241 Calhoun St,,, Cincinnati, OH,US,45219,39.1280057,-84.5170632
CLE6,23371 Aurora Road,,, Bedford Heights, OH,US,44146,41.417808,-81.5103513
CAK1,290 E Exchange Street,,, Akron, OH,US,44304,41.0727058,-81.51288819999999
SOH2,1120 STRATEGIC PKWY,,, SPRINGDALE, OH,US,45246,39.3020399,-84.46144790000001
AKC1,2450 ROMIG RD,,, AKRON, OH,US, 44320-3827,41.0480996,-81.58098969999999
SOH3,6322 COLLINGS DR,,, LOCKBOURNE, OH,US, 43137-3500,39.834095,-82.96443169999999
PCW1,27400 Crossroads Parkway,,, ROSSFORD, OH,US, 43460-1706,41.5476438,-83.57815289999999
TOH1,5845 Highland Ridge Drive,,, Cincinnati, OH,US, 45232-1441,39.1923567,-84.4989753
POH2,2155 ROHR RD,,, LOCKBOURNE, OH,US,43137,39.8450747,-82.9452378
CMH4,1550 W. Main Street,,, WEST JEFFERSON, OH,US, 43162-9747,39.9429332,-83.3170831
CMH6,3538 TRADEPORT CT,,, LOCKBOURNE, OH,US, 43137-9670,39.78337,-82.9457865
KOH8,1001 LOGISTICS WAY,,, MONROE, OH,US, 45044-3218,39.4359522,-84.404473
KOH6,1001 LOGISTICS WAY,,, MONROE, OH,US, 45044-3218,39.4359522,-84.404473
KOH2,1001 Logistics Way,,, MONROE, OH,US, 45044-3218,39.4359522,-84.404473
CLE3,1155 Babbitt Road,,, Euclid, OH,US, 44132-2703,41.5942758,-81.5079841
KOH1,1001 Logistics Way,,, Monroe, OH,US,45044,39.4359522,-84.404473
LUK2,10791 DOG LEG RD,,, VANDALIA, OH,US, 45377-6500,39.9042622,-84.2508659
VHNC,11999 National Rd SW,,, Etna, OH,US,43062,39.9531985,-82.71346940000001
HCM9,3538 TRADEPORT CT ,,, LOCKBOURNE , OH,US, 43137-9670,39.78337,-82.9457865
UOH4,4401 Equity Dr,,, COLUMBUS, OH,US,43228,39.98662059999999,-83.1215046
UOH5,8660 Jacquemin Drive,,, West Chester, OH,US,45069,39.3399541,-84.4523931
SOH1,6895 Engle Road,,, Middleburg Heights, OH,US, 44130-7909,41.3801028,-81.8231344
VUGX,2 ABBOTT PARK WAY,,, TIPP CITY, OH,US, 45371-1286,39.9710736,-84.2000671
CLE2,21500 Emery Rd,,, Randall, OH,US,44128,41.43324459999999,-81.53071949999999
OKC9,1155 Babbitt Rd.,,, Euclid, OH,US,44132,41.5942758,-81.5079841
SUJE,5124 Cleveland Rd,,, Wooster, OH,US,44691,40.8620666,-81.92451539999999
VUI8,212 Progress Blvd,,, KENT, OH,US,44240,41.1148313,-81.3887426
VUPW,8778 Le St Dr,,, West Chester, OH,US, 45014-2260,39.3369315,-84.4737124
VUHG,28625 Fountain Parkway,,, Solon, OH,US,44139,41.3717613,-81.47767259999999
POH1,1901 BEGGROW RD,,, LOCKBOURNE, OH,US, 43137-7566,39.8359412,-82.949485
CMH3,700 GATEWAY BLVD MONROE,,, Monroe, OH,US,45050,39.4282735,-84.33307690000001
SUHO,355 Tomahawk Drive Suite3,,, Maumee, OH,US,43537,41.58681259999999,-83.6765187
SUPC,503 West High St,,, Hicksville, OH,US,43526,41.2868196,-84.7739034
CMH2,6050 Gateway Court,,, Groveport, OH,US, 43125-9016,39.845505,-82.93069
CMH1,11903 National Road SW,,, Etna, OH,US,43062,39.9540809,-82.7132616
SUAS,2800 Corporate Exchange Drive,,, Columbus, OH,US,43231,40.1033262,-82.9428599
XLAE,5330 Crosswind Dr,,, Columbus, OH,US,43228,39.9241593,-83.1376908
UOH2,3563 Interchange Rd,,, Columbus, OH,US,43204,39.972207,-83.10029999999999
OSU1,2114 N. High Street,,, Columbus, OH,US,43201,40.0055137,-83.00888719999999
SUAB,2800 CORPORATE EXCHANGE DRIVE,,, Columbus, OH,US,43231,40.1033262,-82.9428599
CLE1,2020 Euclid Ave,,, Cleveland, OH,US,44115,41.501379,-81.676171
TUL2,4040 North 125th East Avenue ,,, TULSA, OK,US, 74116-2102,36.2130544,-95.8405573
OKC2,8991 S Portland Avenue,,, OKLAHOMA CITY, OK,US, 73159-0003,35.3818357,-97.5793892
OKC1,9201 S Portland Avenue,,, OKLAHOMA CITY, OK,US,73159,35.3738243,-97.58092979999999
POR1,1131 SW Jefferson,,, Portland, OR,US,97201,45.5165578,-122.6856712
PDX6,15000 N. Lombard St,,, Portland, OR,US,97203,45.6331449,-122.767539
PDX7,4775 Depot Ct SE,,, Salem, OR,US, 97317-8983,44.9025934,-122.9614735
HIO9,23677 NM Huffman St.,,, Hillsboro, OR,US,97124,45.5577353,-122.9203608
SUAY,10020 S Gibson Rd,,, Molalla, OR,US,97038,45.1140158,-122.6599686
TOR1,2104 NW York Street,,, Portland, OR,US,97210,45.538771,-122.695398
SOR3,701 NE Columbia Blvd,,, PORTLAND , OR,US, 97211-1405,45.5802519,-122.6570019
HPD9,15000 N LOMBARD ,,, PORTLAND , OR,US, 97203-6814,45.6331449,-122.767539
SUOW,9655 SW Sunshine CT,,, Beaverton, OR,US,97005,45.47681679999999,-122.7758774
UOR2,5015 NW FRONT AVE,,, PORTLAND, OR,US, 97210-1105,45.5574345,-122.7329778
SUOS,9655 SW SUNSHINE CT,,, BEAVERTON, OR,US,97005,45.47681679999999,-122.7758774
VUOL,14005 North Lombard,,, Portland, OR,US,97203,45.6265325,-122.7734669
DEV2,125 SW HOPKINS AVE,,, CORVALLIS, OR,US, 97333-1175,44.550921,-123.2662547
PDX9,1250 NW Swigert Way,,, Troutdale, OR,US,97060,45.5534828,-122.4011715
UOR1,2104 NW York Street ,,, Portland , OR ,US,97210,45.538771,-122.695398
PPA1,545 Oak Hill Road,,, Mountaintop, PA,US, 18707-2141,41.132592,-75.8922441
VUWB,6373 Brackbill Blvd,,, Mechanicsburg, PA,US, 17050-2876,40.2271042,-77.0046539
VUAV,1 Commerce Road,,, Pittston, PA,US,18640,41.3283271,-75.72114429999999
XUSG,9645 West Hills Court,,, Kutztown, PA,US,19530,40.5849289,-75.70044299999999
VUQE,69 Green Mountain Road,,, Hazleton, PA,US,18202,40.9146003,-76.0921261
AVP1,550 Oak Ridge Road,,, Hazleton, PA,US, 18202-9361,40.9220055,-76.04898179999999
ABE5,100 Quality Circle,,, Harrisburg, PA,US,17112,40.3503415,-76.73978439999999
ABE9,100 Quality Circle,,, Harrisburg, PA,US,17112,40.3503415,-76.73978439999999
AVP3,298 1st Ave,,, Gouldsboro, PA,US, 18424-9492,41.275641,-75.49891610000002
VUCB,5197 Commerce Drive,,, YORK, PA,US,17408,39.9393392,-76.8487174
VUQP,655 E Park St,,, LOCK HAVEN, PA,US,17745,41.1239376,-77.45693109999999
ABE4,1610 Van Buren Road,,, Easton, PA,US,18045,40.7403275,-75.2774111
VUGL,1200 Distribution Drive,,, Carlisle, PA,US,17013,40.2050515,-77.2353541
VUGM,597 Alexander Spring Rd.,,, Carlisle, PA,US,17015,40.1803078,-77.2286517
PHL4,21 Roadway Dr,,, Carlisle, PA,US, 17015-8806,40.2325356,-77.1110033
PHL6,675 Allen Rd.,,, Carlisle, PA,US, 17015-7788,40.1752607,-77.2315342
MDT1,2 Ames Drive,,, Carlisle, PA,US,17015,40.1663469,-77.2416794
XUSC,40 Logistics Dr,,, Carlisle, PA,US, 17013-7901,40.1902879,-77.22380989999999
ABE2,705 Boulder Drive,,, Breinigsville, PA,US, 18031-1533,40.5583972,-75.6138981
PPH3,2306 South Street,,, PHILADELPHIA, PA,US, 19146-1122,39.9453781,-75.1800567
MDT3,460 Research Drive,,, PITTISON, PA,US, 18640-6152,41.3038889,-75.74169169999999
PPA2,1057 HANOVER ST,,, HANOVER TOWNSHIP, PA,US,18706,41.201898,-75.9380431
UPA1,4101 Sansom St,,, Philadelphia, PA,US, 19104-3021,39.9556241,-75.205152
ABE3,650 Boulder Drive,,, Breinigsville, PA,US, 18031-1536,40.5562976,-75.6218999
VUGJ,4275 Fritch Dr,,, Bethlehem, PA,US,18020,40.6854974,-75.3475945
PHL5,500 McCarthy Dr.,,, Lewisberry, PA,US, 17339-8725,40.1713932,-76.8371391
VAVP,250 Enterprise Way,,, Pittston, PA,US, 18640-5000,41.3128257,-75.7723962
AVP8,250 Enterprise Way,,, Pittston, PA,US, 18640-5000,41.3128257,-75.7723962
KPA1,200 W STEWART HUSTON DR,,, COATESVILLE, PA,US, L4W 0B2,39.9758038,-75.88498349999999
SUOY,1728 Smallman St.,,, Pittsburgh, PA,US,15222,40.4506023,-79.98575170000001
SULX,1728 Smallman St.,,, Pittsburgh, PA,US,15222,40.4506023,-79.98575170000001
TEN1,1002 PATRIOT PKWY,,, READING, PA,US, 19605-2874,40.374272,-75.94741259999999
SUAH,2901 Grant Ave,,, Philadelphia, PA,US,19114,40.0760873,-75.01529529999999
TPAA,4101 Sansom St,,, Philadelphia, PA,US,19104,39.9556241,-75.205152
HEA2,311Ella St,,, PITTSBURGH, PA,US, 15224-1806,40.46279940000001,-79.9521099
RDG2,270 MIDWAY RD ,,, BETHEL , PA,US, 19507-9517,40.4833992,-76.2446762
PEN1,3800 Locust Walk,,, Philadelphia, PA,US,19104,39.9519037,-75.1994966
SUBE,921 E. Tolna Rd.,,, New Freedom , PA,US,17349,39.758469,-76.66044
SUOR,3820 Hempland Rd,,, Mountville, PA,US,17544,40.0421784,-76.4207851
FDP1,4000 McClaren Woods Dr,,,, CORAOPOLIS,US, PA,15108,
RDG1,3530 MOUNTAIN RD,,, HAMBURG, PA,US, 19526-7948,40.5264976,-76.1040214
PIT2,1200 Westport Rd,,, IMPERIAL, PA,US, 15126-1002,40.45003519999999,-80.3161749
SUOT,3820 Hempland Rd,,, Mountville, PA,US,17544,40.0421784,-76.4207851
SPA1,1300 N BROAD ST,,, PHILADELPHIA, PA,US, 19121-4303,39.9733709,-75.15937199999999
MAF6,1837 Street Rd,,, Bensalem, PA,US,19020,40.0954693,-74.94215799999999
VUAO,10 SIMMONS DR,,, HAZLE TOWNSHIP, PA,US, 18202-8001,40.9194429,-76.0533331
VUAH,310 HEINZ ST,,, MECHANICSBURG, PA,US, 17055-3212,40.2163842,-77.0162036
VUAE,3025 COMMERCE CENTER BLVD,,, BETHLEHEM, PA,US, 18015-9547,40.609906,-75.32627719999999
HPH9,298 1ST AVE ,,, GOULDSBORO , PA,US, 18424-9492,41.275641,-75.49891610000002
VUGA,508 Delaware Ave,,, West Pittston, PA,US,18643,41.3307142,-75.8040931
VUBF,575 Old Forge Road,,, Union Township, PA,US,17963,40.5416949,-76.4693867
SCE1,134 South Allen St,,, State College, PA,US,16801,40.7934808,-77.86092769999999
VUPH,9300 Olde Scotland Road,,, Shippensburg, PA,US,17257,40.0277117,-77.52001969999999
VUGP,234 Walnut Bottom Road,,, Shippensburg, PA,US,17257,40.0591104,-77.4691216
AVP6,1 Commerce Rd,,, Pittston, PA,US, 18640-9509,41.3283271,-75.72114429999999
MAF7,389 Easton Road,,, WARRINGTON, PA ,US,18976,40.22235420000001,-75.1382112
PNE1,2455 BOULEVARD OF THE GENERALS,,, NORRISTOWN, PA ,US, 19403-3661,40.124567,-75.3975055
VUJC,9606 West Hills Ct Suite A,,, KUTZTOWN, PA ,US,19530,40.5818403,-75.6958118
AVP9,45 VALLEY VIEW DR,,, JESSUP, PA ,US, 18434-1153,41.4558513,-75.5463338
GSP1,402 John Dodd Rd,,, Spartanburg, SC,US, 29303-6312,35.0080117,-82.0353899
VUQM,441 Masters Boulevard,,, Anderson, SC,US,29626,34.4550143,-82.6833314
CAE1,4400 12 Street Extension,,, West Columbia, SC,US, 29172-3300,33.9112437,-81.0502798
CHS4,400 Long Point Rd,,, MOUNT PLEASANT, SC,US,29464,32.8355792,-79.8785083
CAE3,222 Old Wire Road,,, West Columbia, SC,US,29172,33.894968,-81.0428606
XUSU,,,, Rock Hill, SC,US,29730,34.9037259,-81.0092062
SULF,170 Longs Pond Rd,,, Lexington, SC,US,29072,33.9329363,-81.2942051
CHA1,7200 Discovery Drive,,, Chattanooga, TN,US, 37416-1757,35.0686302,-85.1411876
HME9,4477 WINCHESTER RD,,, MEMPHIS, TN,US, 38118-5121,35.0507453,-89.9141531
BNA1,14840 Central Pike,,, Lebanon, TN,US, 37090-8119,36.1308748,-86.4064195
TTN1,410 Harding Industrial Dr.,,, Nashville, TN,US,37211,36.0924958,-86.6893206
UTN1,410 Harding Industrial Dr.,,, Nashville, TN,US,37211,36.0924958,-86.6893206
VUCO,960 WAUHATCHIE PIKE,,, CHATTANOOGA, TN,US, 37419-2432,34.9834888,-85.3882106
TYS1,4101 S SINGLETON STATION RD,,, ROCKFORD, TN,US, 37853-3221,35.83393969999999,-83.9568547
TTNA,410 Harding Industrial Dr.,,, Nashville, TN,US,37211,36.0924958,-86.6893206
MEM1,3292 E. Holmes Rd,,, Memphis, TN,US,38118,35.0071075,-89.95121209999999
CHA2,225 Infinity Dr NW,,, Charleston, TN,US, 37310-1400,35.2826193,-84.8121439
BNA3,2020 Joe B Jackson Pkwy,,, Murfreesboro, TN,US, 37127-7792,35.777861,-86.3634318
XSP1,1115 Vaughn Parkway,,, Portland, TN,US,37148,36.6403577,-86.5790827
HTN3,555 EXPRESSWAY PARK DR,,, NASHVILLE, TN,US, 37210-2845,36.1491481,-86.74800169999999
RAD1,3818 LOGISTICS WAY,,, ANTIOCH, TN,US, 37013-4189,36.029713,-86.6101511
BNA2,500 Duke Dr,,, Lebanon, TN,US, 37090-8123,36.1202665,-86.4095554
MQY1,6060 GOLDEN BEAR GTWY ,,, MOUNT JULIET , TN,US, 37122-1413,36.1901198,-86.479928
XIX4,5155 Citation Drive,,, MEMPHIS, TN,US, 38118-7830,35.0081458,-89.9092605
XLAJ,3440 Meyers Rd,,, Memphis, TN,US,38108,35.1777605,-89.9462484
MEM4,4055 NEW ALLEN RD,,, MEMPHIS, TN,US, 38128-2712,35.23502879999999,-89.95585659999999
STN1,10 Dell Parkway,,, NASHVILLE, TN,US,, 37217-2830,
FTW9,944 West Sandy Lake Road,,, COPPELL, TX,US, 75019-3989,32.97377,-97.0224719
DAL3,1301 Chalk Hill Road,,, DALLAS, TX,US,75211,32.7558565,-96.9041442
UTX3,4221 Way Out West Drive,,, Houston, TX,US, 77092-1455,29.83387459999999,-95.5004775
UTX9,4616 W Howard Lane,,, AUSTIN, TX,US,78728,30.4450436,-97.7083219
SUGB,5283 N State Hwy 6,,, Woodway, TX,US,76712,31.551341,-97.274166
VUPJ,101 Mars Road,,, Wilmer, TX,US,75172,32.5807988,-96.6775117
SAT1,6000 Enterprise Avenue,,, Schertz, TX,US, 78154-1461,29.5980314,-98.29243729999999
SAT2,1401 E McCarty Lane,,, San Marcos, TX,US, 78666-8969,29.8373398,-97.9629616
TTX5,4848 Perrin Creek 680,,, San Antonio, TX,US,78217,29.5259938,-98.40054459999999
VUHE,3401 Innovative Way,,, Mesquite, TX,US,75149,32.7761954,-96.6514514
LBB1,2407 9th Street,,, Lubbock, TX,US,79401,33.5867603,-101.8690157
PTX1,2101 Danieldale Road,,, Lancaster, TX,US, 75134-1551,32.6335465,-96.79812609999999
SUBG,28651 Cranford Sage Ln,,, Katy, TX,US,77494,29.7719769,-95.8667725
VUCT,13401 ASHMORE LN ,,, NORTHLAKE, TX,US,76262,33.02885,-97.263364
DFW9,2700 Regent Blvd,,, Irving, TX,US,75063,32.9411678,-97.0269799
SUOF,6605 Roxburgh Dr. Suite 400,,, Houston, TX,US,77041,29.8653602,-95.5570812
AFW1,1511 W LOOP 820 N,,, FORT WORTH, TX,US, 76108-9755,32.7834831,-97.465514
HOU2,10550 Ella Boulevard,,, Houston, TX,US,77090,29.934448,-95.4283222
HTX2,4221 Way Out West Drive,,, Houston, TX,US, 77092-1455,29.83387459999999,-95.5004775
HTX1,4221 Way Out West Drive,,, Houston, TX,US,77092,29.83387459999999,-95.5004775
TTX3,4221 Way Out West Drive,,, Houston, TX,US,77092,29.83387459999999,-95.5004775
IAH6,8401 Fallbrook Drive,,, Houston, TX,US,77064,29.9254752,-95.5312735
ITX2,6811 Fairbanks N Houston Road,,, Houston, TX,US, 77040-1437,29.8656451,-95.5248647
ITX1,9851 Fallbrook Pines,,, Houston, TX,US, 77064-3329,29.9217241,-95.5340609
FTW6,2601 W Bethel Road,,, Dallas, TX,US, 75261-4034,32.9521693,-97.0316981
VUPZ,4800 Henrietta Creek Rd,,, Fort Worth, TX,US,76177,32.9918371,-97.2553751
HOU7,16225 TOMBALL PKWY,,, BLDG A, HOUSTON,US, TX,77064,
VUBI,501 Meacham Blvd,,, Fort Worth, TX,US,76106,32.8289706,-97.348407
DFW7,700 Westport Parkway,,, Fort Worth, TX,US, 76177-4513,32.9707467,-97.3357906
XUSB,14900 Frye Rd,,, Fort Worth, TX,US, 76155-2726,32.8180131,-97.0421147
UTX7,4601 Gold Spike Drive,,, Fort Worth, TX,US,76106,32.8280867,-97.3546942
FTW3,15201 Heritage Pkwy,,, Fort Worth, TX,US, 76177-2517,33.0088277,-97.2953004
DAL6,4601 Gold Spike,,, Fort Worth, TX,US,76106,32.8280867,-97.3546942
DFW1,2700 Regent Blvd,,, DFW Airport, TX,US,75261,32.9167992,-96.9803755
FTW2,2701 West Bethel Road,,, Dallas, TX,US,75261,32.9537645,-97.02672770000001
SUSE,188 County Road 4226,,, Decatur, TX,US,76234,33.1727341,-97.55160889999999
XLAF,1600 Roe St,,, Dallas, TX,US,75215,32.7644046,-96.7942964
FTW8,3351 Balmorhea Dr. ,,, Dallas, TX,US, 75241-7304,32.6345533,-96.7703014
VUPO,4808 Mountain Creek Parkway,,, Dallas, TX,US,75236,32.6769212,-96.9668512
FTW1,33333 LBJ Freeway,,, Dallas, TX,US,75241,32.6603642,-96.73753169999999
TTX4,6627 Maple Avenue,,, Dallas, TX,US,75235,32.8284599,-96.84590779999999
FTW7,944 W Sandy Lake Rd,,, Coppell, TX,US,75019,32.97377,-97.0224719
DFW6,940 W Bethel Road,,, Coppell, TX,US, 75019-4424,32.9586061,-97.01691609999999
SUHT,1809 W. Frankford Rd,,, Carrollton, TX,US,75007,32.9919045,-96.9381903
SUAD,100 Syble Jean Dr. ,,, Burleson, TX,US,76028,32.5799836,-97.2661498
UTX8,4825 Eisenhauer Rd,,, San Antonio, TX,US,78218,29.497089,-98.39623689999999
TAM1,2800 South Texas Avenue,,, Bryan, TX,US,77802,30.6444866,-96.3553132
HOU3,31555 Highway 90E,,, Brookshire, TX,US,77423,29.7860643,-95.95106609999999
TTX2,2209 Rutland Dr,,, Austin, TX,US,78758,30.380384,-97.7183332
TEX1,Gregory Gym,,, 2101 Speedway, Austin,US, TX,78712,
SUOZ,359 Pike Court,,, La Porte, TX,US,77571,29.6967763,-95.08755029999999
AUS2,2000 E PECAN ST,,, PFLUGERVILLE, TX,US,78660,30.4318696,-97.59834939999999
AUS3,1618 EXCHANGE PKWY,,, WACO, TX,US, 76712-6903,31.4998808,-97.173649
DPA7,9851 9851 FALLBROOK PINES DR # 150,,, HOUSTON, TX,US, 77064-3329,29.9217241,-95.5340609
FTW5,1475 AKRON WAY,,, FORNEY, TX,US, 75126-2300,32.7363374,-96.41512619999999
HOU9,22525 CLAY RD ,,, KATY , TX,US,77449,29.8292521,-95.7678394
IAH1,9155 SOUTHLINK DR ,,, DALLAS , TX,US, 75241-7510,32.6359646,-96.7452228
IAH2,9155 SOUTHLINK DR ,,, DALLAS , TX,US, 75241-7510,32.6359646,-96.7452228
STX6,18625 SCHULTZ LN,,, PFLUGERVILLE, TX,US,78660,30.48481869999999,-97.6320375
VUH5,800 W Stephens St,,, ARLINGTON, TX,US,76017,32.6732662,-97.1187774
VUI7,2801 North Houston School Road,,, LANCASTER, TX,US,75134,32.6203347,-96.8079592
KTX6,1901 W AIRFIELD DR,,, DALLAS, TX,US, 75261-4033,32.91113060000001,-97.06967619999999
KTX8,1901 W AIRFIELD DR,,, DALLAS, TX,US, 72561-4033,32.91113060000001,-97.06967619999999
SAT4,10384 W US HIGHWAY 90,,, SAN ANTONIO, TX,US, 78245-9512,29.3772803,-98.6931846
SAT6,1346 Fortuna Road,,, SAN MARCOS, TX,US,78666,29.9339047,-97.872728
STX7,2218 CORNER RDG ,,, SAN ANTONIO, TX,US, 78219-1819,29.4503391,-98.3903411
ELP1,12101 EMERALD PASS DR,,, EL PASO, TX,US, 79928-7808,31.6868166,-106.2600275
HOU8,2303 Hurricane Lane,,, FRESNO, TX,US,77545,29.546342,-95.49831379999999
HTX3,1755 FEDERAL RD,,, HOUSTON, TX,US, 77015-6794,29.7545372,-95.20758470000001
VUJI,4500 NORTHPORT DR,,, NORTHLAKE, TX,US, 76262-3665,33.0277129,-97.2595542
KTX1,15716 WOLF XING BLDG E,,, JUSTIN, TX,US, 76247-7791,33.02663,-97.3271889
KTX2,15716 WOLF XING BLDG E,,, JUSTIN, TX,US, 76247-7791,33.02663,-97.3271889
ADS1,4121 INTERNATIONAL PARKWAY,,, CARROLLTON, TX,US, 75007-1907,33.0206456,-96.8490034
AFW2,12728 LAKE JUNE RD,,, DALLAS, TX,US,75180,32.736234,-96.60777039999999
HHO9,16625 TOMBALL PKWY STE A,,, HOUSTON, TX,US, 77064-1805,29.9490557,-95.53313999999999
VUAL,2101 DANIELDALE RD,,, LANCASTER, TX,US, 75134-1551,32.6335465,-96.79812609999999
UDA1,4150 Kellway Circle,,, ADDISON, TX,US,75001,32.9715582,-96.84188379999999
VUAX,4000 OSCAR NELSON JR DR,,, BAYTOWN, TX,US,77523,29.7151736,-94.91941680000001
SAT3,6806 CAL TURNER DR,,, SAN ANTONIO, TX,US, 78220-4461,29.4261057,-98.355081
IAH4,11720 N GESSNER RD,,, HOUSTON, TX,US, 77064-1325,29.9409853,-95.54417439999999
RIM2,777 Freeport Pkwy.,,, COPPELL, TX,US,75019,32.9526748,-97.0137882
RIM3,4545 Spring Valley Rd.,,, DALLAS, TX,US,75224,32.9406709,-96.83158259999999
XIX3,1400 SOUTHPORT PKWY BLDG 7,,, WILMER, TX,US, 75172-1265,32.6229655,-96.6744877
HOU6,10507 HARLEM RD ,,, RICHMOND , TX ,US, 77407-9563,29.6671743,-95.7125429
RTPX,2700 Story Road West,,, IRVING, TX ,US,75038,32.8692485,-96.9821577
HDA9,2701 W. Bethel Rd. ,,, COPPELL , TX ,US,75019,32.9537645,-97.02672770000001
UTX5,4848 Perrin Creek #680 ,,, San Antonio , TX ,US, 78217-3744,29.5259938,-98.40054459999999
UTX2,2209 Rutland Drive,,, Austin , TX ,US,78758,30.380384,-97.7183332
STX5,5215 Campbell Road,,, Houston, TX ,US,77041,29.84555289999999,-95.5326532
STX4,10611 Red Bluff Road,,, Pasadena, TX ,US,77505,29.6092595,-95.073572
STX3,4445 Rock Quarry Rd #400,,, Dallas, TX ,US, 75211-1409,32.7529726,-96.8895562
VHNE,2601 West Bethel Rd,,, DFW Airport, TX ,US,75019,32.9521693,-97.0316981
KUS3,No.1,,, Gangtong Road, Meishan Free Trade Port Area,US, Ningbo, US,
SULU,582 S 1100 W,,, Woods Cross, UT,US,84087,40.8828439,-111.9122848
SLC2,7148 W OLD BINGHAM HWY,,, West Jordan, UT,US,84081,40.5691257,-112.0602072
VUQN,1711 S 4650 W,,, Salt Lake City, UT,US,84104,40.7344623,-112.0010613
OGD1,770 S GLADIOLA ST,,, SALT LAKE CITY, UT,US, 84104-4657,40.7523861,-111.9736721
SUT1,6338 West 700 North,,, SALT LAKE CITY, UT,US,84116,40.7840622,-112.0412448
SLC3,355 North JOHN GLENN RD,,, Salt Lake City, UT,US, 84116-4413,40.77385779999999,-112.0363292
SUOI,870 North 100 East,,, Lehi, UT,US,84043,40.398439,-111.8475662
SLC1,777 N 5600 W,,, Salt Lake City, UT,US,84116,40.7859965,-112.0299368
SUSJ,8427 South Old Bingham Hwy,,, West Jordan, UT,US,84088,40.5979797,-111.9726727
HSL9,355 N JOHN GLENN RD,,, SALT LAKE CITY, UT,US, 84116-4412,40.77385779999999,-112.0363292
SUCE,8427 S. Old Bingham Hwy,,, West Jordan, UT,US,84088,40.5979797,-111.9726727
SUBL,582 S 1100 W,,, Woods Cross, UT,US,84087,40.8828439,-111.9122848
RIC4,5901 RICHMOND HENRICO TPKE,,, RICHMOND, VA,US,23227,37.602922,-77.416546
BWI4,165 Business Blvd,,, Clear Brook, VA,US,22624,39.2898114,-78.0780245
BWI1,45121 Global Plaza,,, Sterling, Sterling,US, VA,20166,
XLX4,4701 Commerce Rd. ,,, RICHMOND , VA,US,23234,37.4625995,-77.429577
HRC9,4949 Commerce Rd. ,,, RICHMOND , VA,US, 23234-2207,37.458511,-77.42745599999999
RIC2,1901 Meadowville Technology Pkwy,,, Chester, VA,US, 23836-2841,37.3525169,-77.3255941
SDC1,6885 Commercial Dr.,,, SPRINGFIELD, VA,US, 22151-4202,38.8003836,-77.1796099
MAG6,7005 Manchester Blvd ,,, Franconia , VA,US,22310,38.76665800000001,-77.1540886
RIC3,4949 Commerce Road,,, RICHMOND, VA,US, 23234-2207,37.458511,-77.42745599999999
UVA1,5617 Industrial Dr,,, Springfield, VA,US, 22151-4410,38.79862139999999,-77.1695458
BWI6,5617 Industrial Drive,,, Springfield, VA,US, 22151-4410,38.79862139999999,-77.1695458
RIC1,5000 Commerce Way,,, Petersburg, VA,US, 23803-6917,37.1947668,-77.4927818
SVA1,99 S 6TH ST,,, RICHMOND, VA,US, 23219-3801,37.539528,-77.439092
UVA5,492 Central Dr,,, VIRGINIA BEACH, VA,US,23454,36.8232216,-76.05251729999999
UVA4,4100 Tomlynn St,,, RICHMOND, VA,US,23230,37.5770372,-77.4793471
RIC9,11600 N Lakeridge Pkwy,,, Ashland, VA,US,23005,37.7304022,-77.4566365
IDT1,5617 Industrial Drive,,, SPRINGFIELD , VA,US, 22151-4410,38.79862139999999,-77.1695458
KRB2,7000 HARDWARE DR,,, PRINCE GEORGE, VA,US, 23875-3041,37.2013298,-77.2784289
MAB3,10354 Fairfax Blvd,,, Fairfax, VA,US,22030,38.8606317,-77.30314709999999
ORF1,3516 South Military Hwy.,,, Chesapeake, VA,US,23323,36.7697657,-76.3527845
SULC,1345 Taylor Farms Road,,, Virginia Beach, VA,US,23453,36.7940771,-76.0641201
UVA3,2263 Dabney Road ,,, Richmond , VA ,US, 23230-3343,37.5839155,-77.48157669999999
ORF3,2020 NORTHGATE COMMERCE PKWY ,,, SUFFOLK , VT,US, 23435-2142,36.8087782,-76.4774731
ORF2,5045 PORTSMOUTH BLVD ,,, CHESAPEAKE , VT,US, 23321-1425,36.8120102,-76.4508362
HWA1,11710 118th Ave NE,,, Kirkland, WA,US,98034,47.7052318,-122.182558
HWA2,20529 24th Ave S,,, SeaTac, WA,US, 98198-5518,47.4180397,-122.3040062
TWA0,13537 Aurora Ave N,,, Seattle, WA,US,98133,47.7279869,-122.3459414
UWA4,76 S Lander Street,,, Seattle, WA,US,98134,47.5802366,-122.3356196
FSE2,5100 15th Ave NW,,, Seattle, WA,US,98107,47.66611109999999,-122.3757851
MAB7,13201 Aurora Ave. N.,,, SEATTLE, WA,US,98133,47.7260788,-122.3470909
MAH8,40481 Murrieta Hot Springs Rd,,, MURRIETA, WA,US,92563,33.5576415,-117.1795048
UWA5,18323 Andover Park W.,,, Bldg. 6, SEATTLE,US, WA,98188,
FSE3,76 South Lander Street,,, Seattle, WA,US,98134,47.5802366,-122.3356196
SEA6,2646 Rainier Ave. South,,, Seattle, WA,US, 98144-5331,47.5791925,-122.2973697
SUXA,345 Boren Ave N,,, Seattle, WA,US,98109,47.6216545,-122.3362195
SUXC,345 Boren Ave N,,, Seattle, WA,US,98109,47.6216545,-122.3362195
SUZB,345 Boren Ave N,,, Seattle, WA,US,98109,47.6216545,-122.3362195
HWE1,14 S. Massachusetts st ,,, SEATTLE , WA,US, 98134-1148,47.5889587,-122.3390293
SWA1,607 Riverside Road,,, EVERETT, WA,US, 98201-1206,48.0092919,-122.1841378
AUN2,7449 45TH STREET CT E,,, FIFE, WA,US, 98424-3775,47.2173108,-122.3304774
DEV3,6050 E MARGINAL WAY S,,, SEATTLE, WA,US, 98108-3235,47.5473159,-122.3317099
AWA1,20529 24TH AVE S,,, SEATAC, WA,US, 98198-5504,47.4180397,-122.3040062
AWA2,20530 24TH AVE S,,, SEATAC, WA,US, 98198-5504,47.4172385,-122.3025005
XUSS,502 10th Ave. Algona ,,, AUBURN , WA,US,98001,47.2909011,-122.2470036
DEV4,6050 E MARGINAL WAY S,,, SEATTLE, WA,US, 98108-3235,47.5473159,-122.3317099
ISE9,1122 Madison,,, Seattle, WA,US,98104,47.60984269999999,-122.3244409
ISE7,920 5th Avenue,,, Seattle, WA,US,98104,47.6064281,-122.3312675
MAB6,2309 S. Jackson St,,, Seattle, WA,US,98144,47.5987771,-122.3019093
VHNB,21005 64th Avenue South,,, KENT, WA,US,98032,47.4176813,-122.2598351
IBF5,4321 Univ. Way NE,,, Seattle, WA,US,98105,47.6604843,-122.3135065
IWA2,15518 Meridian Ave E,,, Puyallup, WA,US,98375,47.1149664,-122.2939006
HNW1,20529 24th Ave S ,,, SEATAC , WA,US,98198,47.4180397,-122.3040062
ITUS,601 MONSTER RD SW,,, RENTON, WA,US, 98057-2966,47.4739843,-122.2443552
QAE1,2121 7th Ave.,,, SEATTLE, WA,US, 98121-5114,47.6160763,-122.3398395
OLM1,3300 HOGUM BAY RD NE,,, OLYMPIA, WA,US, 98516-3111,47.0803788,-122.7642571
Bill-to Address,PO Box 80387,,, Seattle, WA,US,98108,47.5405059,-122.3045438
BFI2,1800 140th Avenue E,,, SUMNER, WA,US, 98390-9624,47.2411042,-122.2433943
IBF1,1501 Boylston Ave ,,, Seattle, WA,US,98122,47.614255,-122.3234014
MAE1,399 Fairview Ave North,,, SEATTLE, WA,US,98109,47.621897,-122.3349421
IBF4,1423 4th Ave,,, Seattle, WA,US,98101,47.6096649,-122.3366427
UWA2,13537 Aurora Ave N.,,, Seattle, WA,US,98133,47.7279869,-122.3459414
SWA2,1905 Raymond Ave,,, RENTON, WA,US, 98057-2621,47.4617124,-122.2297781
UWA6,20202 84th AVE S,,, KENT, WA,US,98032,47.41969630000001,-122.2267187
UWR1,1517 SW 104th St,,, SEATTLE, WA,US,98146,47.5098681,-122.354502
ILS4,13223 39th Ave SE,,, Mill Creek, WA,US,98012,47.8774099,-122.1801023
UTX4,PO Box 80387,,, Seattle, WA,US,98108,47.5405059,-122.3045438
ISE2,1227 124th Ave NE,,, Bellevue, WA,US,98004,47.62221359999999,-122.1772679
SEA8,1227 124th Ave NE,,, Bellevue, WA,US,98004,47.62221359999999,-122.1772679
BFI3,2700 Center Drive,,, DuPont, WA,US, 98327-9607,47.11239459999999,-122.6385332
SULA,1380 Stonegate Way,,, Ferndale, WA,US,98248,48.8222052,-122.5567633
SUNA,4179 70th Ave East,,, Fife, WA,US,98424,47.21905599999999,-122.3342356
IBF2,320 108th Ave NE,,, Seattle, WA,US,98004,47.6133959,-122.1958506
BFI6,20202,,, 84th Avenue South, Kent,US, WA,98032,
ASE3,20526 59th Place South,,, Kent, WA,US,98032,47.4174678,-122.2598488
HWA3,20202 84th AVE S,,, Kent, WA,US,98032,47.41969630000001,-122.2267187
ISE5,20202 84th Ave South,,, Kent, WA,US,98032,47.41969630000001,-122.2267187
VUPM,22001 84th Avenue,,, Kent, WA,US,98032,47.4053181,-122.2317951
BFI4,21005 64th Ave S,,, Kent, WA,US,98032,47.4176813,-122.2598351
GEG1,10010 West Geiger Boulevard,,, Spokane, WA,US,99224,47.6003046,-117.5534063
ISE8,20202 84th Ave South,,, Kent, WA,US,98032,47.41969630000001,-122.2267187
XLAI,7650 S 228th St,,, Kent, WA,US,98032,47.3994228,-122.2369983
UWA1,11710 118th Ave NE Building B ,,, Kirkland, WA,US,98034,47.7052318,-122.182558
SUED,229 N Ella Rd,,, Spokane Valley, WA,US,99212,47.6602329,-117.2999336
BFI1,1800 140th Avenue E. ,,, Sumner, WA,US, 98390-9624,47.2411042,-122.2433943
BFIX,1800 140th Ave E ,,, Sumner, WA,US, 98390-9624,47.2411042,-122.2433943
BFI7,1901 140th Ave E,,, Sumner, WA,US,98390,47.2402874,-122.2393175
IDT1,13905 Crayton Blvd,,, HAGERSTOWN, WA,US, 21742-3690,39.6992807,-77.7262726
ISE6,307 Fairview Avenue North,,, Seattle, WA,US,98109,47.6213868,-122.3350475
PWA1,1800 140TH AVE E,,, SUMNER, WA,US, 98390-9624,47.2411042,-122.2433943
TIW1,One Sitcum Plaza,,, Tacoma, WA,US,98421,47.2649925,-122.4129934
DEV1,6050 E Marginal Way S,,, SEATTLE, WA,US, 98108-3235,47.5473159,-122.3317099
HWA4,3138 200TH ST E,,, SPANAWAY, WA,US,98387,47.0746999,-122.3857833
RHA1,635 Elliott Ave W,,, SEATTLE, WA,US,98119,47.6251601,-122.3673303
BFI9,3230 INTERNATIONAL PL,,, DUPONT, WA,US, 98327-7707,47.1105634,-122.6246873
XUSW,7911 S 188th St. No. 103,,, KENT, WA,US,98032,47.4328634,-122.2360573
IBF3,1920 Terry Ave N,,, SEATTLE, WA,US,98101,47.6168845,-122.334111
SUZC,345 Boren Ave N,,, Seattle, WA,US,98109,47.6216545,-122.3362195
SUZA,345 Boren Ave N,,, Seattle, WA,US,98109,47.6216545,-122.3362195
ISE1,2131 7th Ave,,, Seattle, WA,US,98121,47.6162214,-122.3397841
PAE2,4620 172ND ST NE,,, ARLINGTON, WA,US, 98223-7738,48.1493139,-122.1670848
PAE3,6611 ASSOCIATED BLVD,,, EVERETT, WA,US, 98203-7153,47.9373328,-122.2450416
MAB2,3903 Factoria Blvd,,, Bellevue, WA ,US,98006,47.5758894,-122.1711374
IBF7,15230 NE 24th St,,, Redmond, WA ,US,98052,47.6320566,-122.1363945
VUHF,11111 80TH AVE,,, Pleasant Prairie, WI,US,53158,42.5152319,-87.8997646
SULD,2020 Prairie Ln,,, Eau Claire, WI,US,54703,44.845284,-91.53675229999999
MKE1,3501 120th Ave,,, Kenosha, WI,US,53144,42.6076637,-87.9478783
MKE9,11211 Burlington Road,,, Kenosha, WI,US,53144,42.6103461,-87.94389629999999
SBX2,4718 Helgesen Drive,,, Madison, WI,US, 53718-6740,43.0674354,-89.3004515
SUPA,412 Technology Drive E.,,, Menomonie, WI,US,54571,44.8816126,-91.89183779999999
UWI1,4111 W Mitchell Street,,, Milwaukee, WI,US,53215,43.0119251,-87.96522089999999
VURY,670 N Perkins St,,, Appleton, WI,US,54914,44.2695144,-88.4370567
SUPB,412 Technology Drive E.,,, Menomonie, WI,US,54751,44.8816126,-91.89183779999999
SWI1,W232 N2950 Roundy Circle E,,, PEWAUKEE, WI,US, 53072-4112,43.0733339,-88.20853009999999
JVL1,1255 Gateway Blvd,,, BELOIT, WI,US,53511,42.5073306,-88.97169869999999
XIX5,11211 Burlington Road,,, KENOSHA, WI,US, 53144-7449,42.6103461,-87.94389629999999
MKE2,9700 S 13th Street,,, OAK CREEK, WI,US,53154,42.8683246,-87.92716410000001
VUJE,355 Byrd Avenue,,, NEENAH , WI ,US,54956,44.1651396,-88.47459839999999
